"ID","FACILITY_NAME","STREET_ADDRESS","CITY_NAME","COUNTY_NAME","STATE_COUNTY_FIPS_CODE","STATE_ABBR","ZIP_CODE","REGION","FAC_CLOSED_IND","MAIL_NAME","MAIL_STREET_ADDRESS","MAIL_CITY","MAIL_STATE_ABBR","MAIL_PROVINCE","MAIL_COUNTRY","MAIL_ZIP_CODE","ASGN_FEDERAL_IND","ASGN_AGENCY","FRS_ID","PARENT_CO_DB_NUM","PARENT_CO_NAME","FAC_LATITUDE","FAC_LONGITUDE","PREF_LATITUDE","PREF_LONGITUDE","PREF_ACCURACY","PREF_COLLECT_METH","PREF_DESC_CATEGORY","PREF_HORIZONTAL_DATUM","PREF_SOURCE_SCALE","PREF_QA_CODE","ASGN_PARTIAL_IND","ASGN_PUBLIC_CONTACT","ASGN_PUBLIC_PHONE","ASGN_PUBLIC_CONTACT_EMAIL","BIA_CODE","STANDARDIZED_PARENT_COMPANY","ASGN_PUBLIC_PHONE_EXT","EPA_REGISTRY_ID"
"15122SGKYW890NO","KEYWELL CORP VAC AIR ALLOYS DIV","890 NOBLE DR","WEST MIFFLIN","ALLEGHENY",42003,"PA",15122,3,0,"KEYWELL CORP VAC AIR ALLOYS DIV","890 NOBLE DR","WEST MIFFLIN","PA",NA,NA,"15122","C",NA,NA,"382653724","SG KEYWELL CO",402136,795525,40.36,79.923611,150,"UN","UN","1","U","1010",0,"J. C. NUTTER",8144534716,NA,NA,NA,NA,NA
"15205LLMRC4590C","ALL AMERICAN GOURMET CO","4590 CAMPBELLS RUN RD","PITTSBURGH","ALLEGHENY",42003,"PA",15205,3,0,"ALL AMERICAN GOURMET CO","4590 CAMPBELLS RUN RD","PITTSBURGH","PA",NA,NA,"15205","C",NA,NA,"144628310","PHILIP MORRIS COS INC",402414,800558,40.425539,80.118831,150,"A1","PG","1","J","1000",0,"MAGNESS WELSH",3129982796,NA,NA,NA,NA,NA
"15065HCKTTFEDER","HARSCO METALS - NATRONA","FEDERAL ST GATE 10 C/O ALLEGHENY LUDLUM STEEL","NATRONA HEIGHTS","ALLEGHENY",42003,"PA",15065,3,0,"HARSCO METALS - NATRONA","300 SEVEN FIELDS BLVD","SEVEN FIELDS","PA",NA,NA,"16046","C",NA,NA,"003952009","HARSCO CORP",403700,794300,40.616667,79.716667,11000,"UN","UN","1","U","1000",0,"GLENN D HUNDERTMARK",7247416662,"GHUNDERTMARK@HARSCO.COM",NA,"HARSCO CORP",NA,110000329136
"15024CHSWCPITTS","CHESWICK POWER PLANT","PITTSBURGH & PORTER ST","SPRINGDALE","ALLEGHENY",42003,"PA",15144,3,0,"CHESWICK POWER PLANT","PO BOX 65","CHESWICK","PA",NA,NA,"15024","C",NA,NA,NA,"GENON HOLDINGS INC.",403212,794739,NA,NA,NA,NA,NA,NA,NA,NA,0,"BILL MCGRAW",7242751595,"WILLIAM.MCGRAW@GENON.COM",NA,"GENON HOLDINGS INC",NA,110056969641
"15025GRDNN1000G","GUARDIAN INDUSTRIES CORP - FLOREFFE PLANT","1000 GLASSHOUSE RD","JEFFERSON HILLS","ALLEGHENY",42003,"PA",15025,3,1,"GUARDIAN INDUSTRIES CORP - FLOREFFE PLANT","1000 GLASSHOUSE RD","JEFFERSON HILLS","PA",NA,NA,"15025","C",NA,NA,"054671169","GUARDIAN INDUSTRIES CORP",401515,795459,NA,NA,NA,NA,NA,NA,NA,NA,0,"JAMES RILEY",2483402183,"JRILEY@GUARDIAN.COM",NA,"GUARDIAN INDUSTRIES CORP",NA,110000328814
"15203SMLBN88SOU","BINGHAM CO","88 S 13TH ST","PITTSBURGH","ALLEGHENY",42003,"PA",15203,3,0,"BINGHAM CO.","RTE. 119N, P.O. BOX 436","BLACK LICK","PA",NA,NA,"15716","C",NA,NA,"005163696","BINGHAM CO",402612,8e+05,40.436667,80,150,"UN","UN","1","U","1010",0,"ROBERT ANTONOVICH",4122481210,NA,NA,NA,NA,NA
"15238WSTNG200BE","EMERSON PROCESS MANAGEMENT POWER & WATER SOLUTIONS INC","200 BETA DRIVE","PITTSBURGH","ALLEGHENY",42003,"PA",15238,3,0,"EMERSON PROCESS MANAGEMENT POWER & WATER SOLUTIONS INC","200 BETA DRIVE","PITTSBURGH","PA",NA,NA,"15238","C",NA,NA,"006269633","EMERSON ELECTRIC CO",402956,795143,40.503056,79.863889,150,"UN","UN","1","U","1010",0,"TIMOTHY MILLER",4129634000,NA,NA,NA,NA,NA
"15120WSTHMWESTS","WHEMCO-STEEL CASTINGS INC","601 W SEVENTH AVE","HOMESTEAD","ALLEGHENY",42003,"PA",15120,3,0,"WHEMCO-STEEL CASTINGS INC","601 W SEVENTH AVE","HOMESTEAD","PA",NA,NA,"15120","C",NA,NA,"142366165","WHEMCO INC",402405,795530,NA,NA,NA,NA,NA,NA,NA,NA,0,"HOWARD ZEIGLER",4124761544,"HZEIGLER@WHEMCO.COM",NA,"WHEMCO INC",NA,110007780767
"15212HNZSX1062P","BAY VALLEY FOODS LLC","1080 RIVER AVE","PITTSBURGH","ALLEGHENY",42003,"PA",15212,3,0,"BAY VALLEY FOODS LLC","1080 RIVER AVE","PITTSBURGH","PA",NA,NA,"15212","C",NA,NA,"159881619","TREE HOUSE FOODS INC",402714,795930,40.454722,79.991944,600,"UN","UN","1","U","1010",0,"SAME",4124426920,NA,NA,"TREE HOUSE FOODS INC",NA,NA
"15024LLGHN1105P","ALLEGHENY LABEL INC","1105 PITTSBURGH ST","CHESWICK","ALLEGHENY",42003,"PA",15024,3,0,"ALLEGHENY LABEL INC","PO BOX 95","CHESWICK","PA",NA,NA,"15024","C",NA,NA,NA,NA,402900,801400,40.5715,79.8574,11000,"Z1","UN","1","U","0000",0,"SUSAN C TONKS",4122747000,NA,NA,NA,NA,NA
"15202HKNCN2150R","BALL METAL FOOD CONTAINER CORP","2150 ROSWELL DR","PITTSBURGH","ALLEGHENY",42003,"PA",15205,3,0,"BALL METAL FOOD CONTAINER CORP.","P.O. BOX 589","BROOMFIELD","CO",NA,NA,"80038-0589","C",NA,NA,"006419147","BALL CORP",402634,800453,40.442778,80.081389,150,"UN","UN","1","U","1010",0,"SCOTT MCCARTY",7657476175,NA,NA,NA,NA,NA
"15031SNXXP710MI","SENEX EXPLOSIVES INC","710 MILLERS RUN RD","CUDDY","ALLEGHENY",42003,"PA",15031,3,0,"SENEX EXPLOSIVES INC","710 MILLERS RUN RD","CUDDY","PA",NA,NA,"15031","C",NA,NA,NA,NA,402054,801040,NA,NA,NA,NA,NA,NA,NA,NA,0,NA,NA,NA,NA,NA,NA,NA
"15225XXNNV2760N","EXXONMOBIL CORP NEVILLE ISLAND TERMINAL","2760 NEVILLE RD","PITTSBURGH","ALLEGHENY",42003,"PA",15225,3,0,"EXXONMOBIL CORP NEVILLE ISLAND TERMINAL","2760 NEVILLE RD","PITTSBURGH","PA",NA,NA,"15225","C",NA,NA,"001213214","EXXONMOBIL CORP",403007,800547,NA,NA,NA,NA,NA,NA,NA,NA,0,"ROBERT FROST",4127783578,NA,NA,NA,NA,NA
"15145LRLMN1210A","LAUREL MOUNTAIN WHIRLPOOLS IN C","1210 AIRBRAKE AVE","TURTLE CREEK","ALLEGHENY",42003,"PA",15145,3,0,"LAUREL MOUNTAIN WHIRLPOOLS IN C","1210 AIRBRAKE AVE","TURTLE CREEK","PA",NA,NA,"15145","C",NA,NA,NA,NA,402430,794856,40.408333,79.815556,99999,"UN","UN","U","U","0000",0,"DAVID BAKER",4128292540,"DBAKER@LAURELMOUNTAINWHIRLPOOLS.COM",NA,NA,NA,110000329412
"15020SNCCHBUNOL","UNIVAR SOLUTIONS USA INC - BUNOLA BRANCH","328 BUNOLA RIVER RD","BUNOLA","ALLEGHENY",42003,"PA",15020,3,0,"UNIVAR SOLUTIONS USA INC - BUNOLA BRANCH","328 BUNOLA RIVER RD","BUNOLA","PA",NA,NA,"15020","C",NA,NA,NA,"UNIVAR SOLUTIONS USA INC",401410,795740,NA,NA,NA,NA,NA,NA,NA,NA,0,"GEORGE SHAWL",4123852929,"GEORGE.SHAWL@UNIVARSOLUTIONS.COM",NA,NA,NA,110000603357
"15201MBDTC5637B","EM-BED-IT & CO. INC.","5637 BUTLER ST","PITTSBURGH","ALLEGHENY",42003,"PA",15201,3,0,"EM-BED-IT & CO. INC.","5637 BUTLER ST","PITTSBURGH","PA",NA,NA,"15201","C",NA,NA,NA,NA,402906,795649,NA,NA,NA,NA,NA,NA,NA,NA,0,"STEPHEN J. SOBINA",4127818585,"SJS@EMBEDITINC.COM",NA,NA,NA,110000329449
"15108CHMCN3000C","UNIVAR USA INC CORAOPOLIS BRANCH","3000 CASTEEL RD","CORAOPOLIS","ALLEGHENY",42003,"PA",15108,3,0,"UNIVAR USA INC","328 BUNOLA RIVER RD","BUNOLA","PA",NA,NA,"15020","C",NA,NA,"102971785","UNIVAR USA INC",402718,801034,NA,NA,NA,NA,NA,NA,NA,NA,0,"STEVEN BERG",4123845353,"STEVEN.BERG@UNIVARUSA.COM",NA,NA,NA,110000329270
"15024RDLND375RI","REDLAND BRICK INC HARMAR PLANT","375 RICH HILL RD","CHESWICK","ALLEGHENY",42003,"PA",150242317,3,1,NA,"375 RICH HILL RD.","CHESWICK","PA",NA,"UNITED STATES","15024-2317","C",NA,NA,"004468690","BELDEN BRICK CO",403330,795030,NA,NA,NA,NA,NA,NA,NA,NA,0,NA,NA,NA,NA,NA,NA,NA
"15146PPGND440CO","PPG INDUSTRIES INC","440 COLLEGE PARK DR","MONROEVILLE","ALLEGHENY",42003,"PA",15146,3,0,"PPG INDUSTRIES INC","440 COLLEGE PARK DR","MONROEVILLE","PA",NA,NA,"15146","C",NA,NA,"001344803","PPG INDUSTRIES INC",402640,794305,NA,NA,NA,NA,NA,NA,NA,NA,0,"MELISSA GERHART",7243255283,"GERHART@PPG.COM",NA,"PPG INDUSTRIES INC",NA,110000329421
"15104PCMTL11TAL","EPIC METALS CORP","11 TALBOT AVE","RANKIN","ALLEGHENY",42003,"PA",15104,3,0,"EPIC METALS CORP","11 TALBOT AVE","RANKIN","PA",NA,NA,"15104","C",NA,NA,NA,NA,402424,795233,NA,NA,NA,NA,NA,NA,NA,NA,0,"MICHAEL SMITHULA",4123513913,"MSMITHULA@EPICMETALS.COM",NA,NA,NA,110001214365
"15120DMSCS1001E","BRISTOL METALS LLC - MUNHALL PLANT","1001 E WATERFRONT DR","MUNHALL","ALLEGHENY",42003,"PA",15120,3,0,"BRISTOL METALS LLC - MUNHALL PLANT","1001 E WATERFRONT DR","MUNHALL","PA",NA,NA,"15120","C",NA,NA,"428994578","SYNALLOY CORP",0,0,NA,NA,NA,NA,NA,NA,NA,NA,0,"JIM HAVRILLA",4124623164,"JHAVRILLA@BRISMET.COM",NA,"SYNALLOY CORP",NA,110002095152
"15034BSWLL702WA","KINDER MORGAN LIQUIDS TERMINALS LLC","702 WASHINGTON AVE","DRAVOSBURG","ALLEGHENY",42003,"PA",15034,3,0,"KINDER MORGAN LIQUIDS TERMINALS L.L.C.","P.O. BOX 253","DRAVOSBURG","PA",NA,NA,"15034","C",NA,NA,NA,NA,402115,795250,NA,NA,NA,NA,NA,NA,NA,NA,0,NA,NA,NA,NA,NA,NA,NA
"15225WTSNSCORNE","WATSON STANDARD CO (NEVILLE ISLAND PLANT)","2895 GRAND AVE","PITTSBURGH","ALLEGHENY",42003,"PA",15225,3,0,"WATSON STANDARD CO (NEVILLE ISLAND PLANT)","616 HITE ROAD","HARWICK","PA",NA,NA,"15049","C",NA,NA,"004397030","WATSON INDUSTRIES INC",403013,800607,40.503889,80.102222,11000,"UN","UN","1","U","1000",0,"WATSON STANDARD",7242751000,"RHUSKULIAK@WATSONSTANDARD.COM",NA,"WATSON INDUSTRIES INC",NA,110000329671
"15206NBSCB6425P","NABISCO BISCUIT CO","6425 PENN AVE","PITTSBURGH","ALLEGHENY",42003,"PA",15206,3,0,"NABISCO INC.","200 DEFOREST AVE. ATTN. ENV. AFFAIRS & SAFETY","EAST HANOVER","NJ",NA,NA,"07936-1944","C",NA,NA,"101241107","NABISCO INC",402725,795458,40.456944,79.916111,150,"UN","UN","1","U","1010",0,"HENRY SANDBACH",2016827098,NA,NA,NA,NA,NA
"15219MTLTC2400S","STEEL DYNAMICS INC - TECHS DIV - METALTECH PLANT","2400 2ND AVE","PITTSBURGH","ALLEGHENY",42003,"PA",15219,3,0,"STEEL DYNAMICS INC - TECHS DIV - METALTECH PLANT","2400 2ND AVE","PITTSBURGH","PA",NA,NA,"15219","C",NA,NA,"808202725","STEEL DYNAMICS INC",402606,795812,NA,NA,NA,NA,NA,NA,NA,NA,0,"DARIN BALL",4123684800,"DARIN.BALL@STEELDYNAMICS.COM",NA,"STEEL DYNAMICS INC",4868,110041625462
"15024WSTNGLOWGR","WESTINGHOUSE ELECTRIC CORP","LOW GRADE RD AT LEMON LN","CHESWICK","ALLEGHENY",42003,"PA",150241300,3,0,"WESTINGHOUSE ELECTRIC CORP.","1000 CHESWICK AVE.","CHESWICK","PA",NA,NA,"15024-1300","C",NA,NA,"001343953","WESTINGHOUSE ELECTRIC CORP",403300,754845,40.55088,79.808384,150,"A1","PG","1","J","1000",0,"ROSEMARY PETA",4129635019,NA,NA,NA,NA,NA
"15108BPXPL510NA","BP PRODUCTS NA INC - CORAOPOLIS TERMINAL","3200 UNIVERSITY BLVD","CORAOPOLIS","ALLEGHENY",42003,"PA",15108,3,0,"BP PRODUCTS NA INC - CORAOPOLIS TERMINAL","3200 UNIVERSITY BLVD","CORAOPOLIS","PA",NA,NA,"15108","C",NA,NA,"039596507","BP AMERICA INC",403140,801112,NA,NA,NA,NA,NA,NA,NA,NA,0,"ROBERT TWORKOWSKI",4106366416,"ROBERT.TWORKOWSKI@BP.COM",NA,NA,NA,110022532801
"15148WSTNG1000A","WESTINGHOUSE AIR BRAKE DIV","1000 AIR BRAKE AVE","WILMERDING","ALLEGHENY",42003,"PA",151480001,3,0,"WESTINGHOUSE AIR BRAKE DIV","1000 AIR BRAKE AVE","WILMERDING","PA",NA,NA,"15148-0001","C",NA,NA,"001344621","AMERICAN STANDARD COS INC",402350,794848,40.397222,79.813333,11000,"UN","UN","1","U","1000",0,"TODD R. SHINGLETON",4128251609,NA,NA,NA,NA,NA
"15108MRCNC641FO","AMERICAN CHEMSOL CORP","641 4TH AVE","CORAOPOLIS","ALLEGHENY",42003,"PA",15108,3,1,"AMERICAN CHEMSOL CORP","641 4TH AVE","CORAOPOLIS","PA",NA,NA,"15108","C",NA,NA,"013996335","AMERICAN CHEMSOL CORP",NA,NA,40.5215,80.1724,150,"A1","PG","1","J","1000",0,"SCOTT MESSER",4122645464,NA,NA,NA,NA,NA
"15139DGWTR300CO","EDGEWATER STEEL LTD","300 COLLEGE AVE","OAKMONT","ALLEGHENY",42003,"PA",15139,3,0,"EDGEWATER STEEL LTD","300 COLLEGE AVE","OAKMONT","PA",NA,NA,"15139","C",NA,NA,NA,NA,403046,795042,40.512778,79.845,11000,"UN","UN","1","U","1000",0,"TED LOHEYDE",4125177200,NA,NA,NA,NA,NA
"15104SSDGRBRADD","USS MON VALLEY WORKS - EDGAR THOMSON PLANT","BRADDOCK AVE & 13TH ST","BRADDOCK","ALLEGHENY",42003,"PA",15104,3,0,"USS MON VALLEY WORKS - EDGAR THOMSON PLANT","BRADDOCK AVE & 13TH ST","BRADDOCK","PA",NA,NA,"15104","C",NA,NA,"029990699","US STEEL CORP",402331,795132,40.391944,79.858889,150,"UN","UN","1","U","1010",0,"MEGHAN COX",4124336777,"MMCOX@USS.COM",NA,"US STEEL CORP",NA,110001116934
"15034SSRVNPOBOX","USS MON VALLEY WORKS - IRVIN PLANT","CAMP HOLLOW RD","WEST MIFFLIN","ALLEGHENY",42003,"PA",15122,3,0,"USS MON VALLEY WORKS - IRVIN PLANT","PO BOX 878","DRAVOSBURG","PA",NA,NA,"15034","C",NA,NA,"029990699","US STEEL CORP",402300,795040,40.3542,79.89,500,"I1","UN","1","J","1000",0,"MEGHAN COX",4124336777,"MMCOX@USS.COM",NA,"US STEEL CORP",NA,110008470724
"15233THVLS2000W","SHERWIN-WILLIAMS CO","2000 WESTHALL ST","PITTSBURGH","ALLEGHENY",42003,"PA",15233,3,0,"SHERWIN-WILLIAMS CO","2000 WESTHALL ST","PITTSBURGH","PA",NA,NA,"15233","C",NA,NA,"004206397","THE SHERWIN-WILLIAMS CO",402820,800235,40.472222,80.043056,150,"UN","UN","1","U","1010",0,"R. SCOTT THOMAS",2165662182,"RSTHOMAS@SHERWIN.COM",NA,"THE SHERWIN-WILLIAMS CO",NA,110000329715
"15220NVRSL1000S","UNIVERSAL AUTO RADIATOR MANUFACTURING CO","1000 SAW MILL RUN BLVD","PITTSBURGH","ALLEGHENY",42003,"PA",152206246,3,0,"UNIVERSAL AUTO RADIATOR MFG. CO.","P.O BOX 16246","PITTSBURGH","PA",NA,NA,"15220-6246","C",NA,NA,NA,NA,402529,800141,40.424722,80.028056,150,"UN","UN","1","U","1010",0,"DAVID RICHARDSON",4124819440,NA,NA,NA,NA,NA
"15239DLNCX535OL","IDL INC","535 OLD FRANKSTOWN RD","PITTSBURGH","ALLEGHENY",42003,"PA",15239,3,0,"IDL INC","4520 OLD WILLIAM PENN HWY","PITTSBURGH","PA",NA,NA,"15146-1626","C",NA,NA,NA,NA,402744,794544,40.462222,79.762222,150,"UN","UN","1","U","1010",0,"NANCY BAYLISS",4127982500,NA,NA,NA,NA,NA
"15215HNRYMALIST","HENRY MILLER SPRING & MFG CO","ALI ST","SHARPSBURG","ALLEGHENY",42003,"PA",15215,3,0,"HENRY MILLER SPRING & MFG CO","ALI ST","SHARPSBURG","PA",NA,NA,"15215","C",NA,NA,"055403752","STANDARD CAR TRUCK",402951,795600,NA,NA,NA,NA,NA,NA,NA,NA,0,"DAVID J. JABLONOWSKI",4127820700,NA,NA,NA,NA,NA
"15106NNLCT726BE","UNION ELECTRIC STEEL CORP","726 BELL ST","CARNEGIE","ALLEGHENY",42003,"PA",15106,3,0,"UNION ELECTRIC STEEL CORP","PO BOX 465","CARNEGIE","PA",NA,NA,"15106","C",NA,NA,"004327862","AMPCO-PITTSBURGH CORP",402506,800436,40.416667,80.078889,150,"UN","UN","1","U","1010",0,"JIMMY WALKER",4124292481,"JWALKER@AMPCOPGH.COM",NA,"AMPCO-PITTSBURGH CORP",NA,110000329243
"15056HSSYC100WA","LIBERTAS COPPER LLC","100 WASHINGTON ST","LEETSDALE","ALLEGHENY",42003,"PA",15056,3,0,"LIBERTAS COPPER LLC","100 WASHINGTON ST","LEETSDALE","PA",NA,NA,"15056","C",NA,NA,NA,NA,403415,801330,40.570833,80.225,500,"UN","UN","1","U","1010",0,"JEFFREY T. KIRK",7242514284,"JKIRK@HUSSEYCOPPER.COM",NA,"LIBERTAS COPPER LLC",NA,110000328994
"15088HRCLSSTATE","EASTMAN CHEMICAL RESINS INC","STATE HWY 837","WEST ELIZABETH","ALLEGHENY",42003,"PA",15088,3,0,"EASTMAN CHEMICAL RESINS INC","PO BOX 545","WEST ELIZABETH","PA",NA,NA,"15088","C",NA,NA,"808898381","EASTMAN CHEMICAL CO",401500,795410,40.266667,79.902778,500,"UN","UN","1","U","1010",0,"EUGENE INGRAM",4123842520,"EMINGRAM@EASTMAN.COM",NA,"EASTMAN CHEMICAL CO",NA,110000583057
"15225PTTDS3400G","PITT-DESMOINES INC","3400 GRAND AVE","PITTSBURGH","ALLEGHENY",42003,"PA",15225,3,0,"PITT-DESMOINES INC","3400 GRAND AVE","PITTSBURGH","PA",NA,NA,"15225","C",NA,NA,NA,NA,403022,800634,40.506111,80.109444,150,"UN","UN","1","U","1010",0,"JOHN STOLAR",4123313000,NA,NA,NA,NA,NA
"15146CMPNT2000E","COMPUNETICS INC","700 SECO RD","MONROEVILLE","ALLEGHENY",42003,"PA",15146,3,0,"COMPUNETICS INC","700 SECO RD","MONROEVILLE","PA",NA,NA,"15146","C",NA,NA,NA,NA,402648,794523,40.447188,79.757708,150,"A1","PG","1","J","1000",0,"ADEODATO VIGANO",4125123493,"AVIGANO@COMPUNETICS.COM",NA,NA,NA,110000841858
"15201PNNZL54THS","PENNZOIL-QUAKER STATE CO PITTSBURGH TERMINAL","54TH ST & AVRR","PITTSBURGH","ALLEGHENY",42003,"PA",15201,3,0,"PENNZOIL-QUAKER STATE CO PITTSBURGH TERMINAL","54TH ST & AVRR","PITTSBURGH","PA",NA,NA,"15201","C",NA,NA,"161809744","PENNZOIL-QUAKER STATE CO",402904,795715,NA,NA,NA,NA,NA,NA,NA,NA,0,NA,NA,NA,NA,NA,NA,NA
"15202PTTSB1HERR","PITTSBURGH INDL PLATING","1 HERRON AVE","PITTSBURGH","ALLEGHENY",42003,"PA",15202,3,0,"WHEATLAND TUBE CO.","1 COUNCIL AVE.","WHEATLAND","PA",NA,NA,"16161-0608","C",NA,NA,"007913981","JOHN MANEELY CO",403000,803000,40.5,80.5,99999,"UN","UN","U","U","0000",0,"ARTHUR HALL",7243426851,NA,NA,NA,NA,NA
"15204FRRCR60GRE","FERRO CORP COLOR DIV","60 GREENWAY DR","PITTSBURGH","ALLEGHENY",42003,"PA",152042599,3,0,"FERRO CORP COLOR DIV","60 GREENWAY DR","PITTSBURGH","PA",NA,NA,"15204-2599","C",NA,NA,"004161477","FERRO CORP",402659,800211,40.4514,80.0514,150,"A1","PG","1","J","1000",0,"JIM QUINN",2168756117,NA,NA,NA,NA,NA
"15024RDLND230RI","REDLAND BRICK INC- HARMAR PLANT","26 RICH HILL RD","CHESWICK","ALLEGHENY",42003,"PA",15024,3,0,"REDLAND BRICK INC- HARMAR PLANT","26 RICH HILL RD","CHESWICK","PA",NA,NA,"15024","C",NA,NA,"004468690","THE BELDEN BRICK CO",403324,795009,NA,NA,NA,NA,NA,NA,NA,NA,0,"JOHN STREB",3302652030,"JOHN.STREB@BELDENBRICK.COM",NA,"BELDEN HOLDING & ACQUISITION INC",1316,110013288478
"15135VSTMT1024E","VISTA METALS INC","1024 E SMITHFIELD ST","MC KEESPORT","ALLEGHENY",42003,"PA",15135,3,0,"VISTA METALS INC","1024 E SMITHFIELD ST","MC KEESPORT","PA",NA,NA,"15135","C",NA,NA,NA,"VISTA METALS CORP",401900,794757,40.316667,79.799167,11000,"UN","UN","1","U","1000",0,"JAMES L. HARCHELROAD",4127514600,"JHARCHELROAD@VISTAMETALSINC.COM",NA,"VISTA METALS CORP",261,110000329350
"15044MLMPY22FRO","MELAMPY MANUFACTURING CO","22 FRONTIER DR","GIBSONIA","ALLEGHENY",42003,"PA",15044,3,0,"MELAMPY MANUFACTURING CO","22 FRONTIER DR","GIBSONIA","PA",NA,NA,"15044","C",NA,NA,"055403752","STANDARD CAR TRUCK",403653,795423,NA,NA,NA,NA,NA,NA,NA,NA,0,"DAVID P. KULBACKI",7244430841,"DKULBACKI@STDCAR.COM",NA,NA,NA,110000328930
"15104MTRCL100TA","MOTOR COILS MFG CO","100 TALBOT AVE","BRADDOCK","ALLEGHENY",42003,"PA",15104,3,0,"MOTOR COILS MFG CO","100 TALBOT AVE","BRADDOCK","PA",NA,NA,"15104","C",NA,NA,"859875437","WABTEC CO",402501,795001,40.405187,79.875583,150,"A1","PG","1","J","1000",0,"RON SHANNON",4122734900,NA,NA,NA,NA,NA
"15201SNCNC5733B","SUNOCO PARTNERS MARKETING & TERMINALS L. P. PITTSBURGH TERM","5733 BUTLER ST","PITTSBURGH","ALLEGHENY",42003,"PA",15201,3,0,"RON O'TOOLE","5733 BUTLER ST","PITTSBURGH","PA",NA,NA,"15201","C",NA,NA,"064717981","SUNOCO PARTNERS MARKETING & TERMINALS LP",403000,795900,NA,NA,NA,NA,NA,NA,NA,NA,0,"RON O'TOOLE",4127843472,NA,NA,NA,NA,110064194107
"15106VVNDMWESTN","VIVIANO MACARONI CO, GROCERY","W NOBLESTOWN RD","CARNEGIE","ALLEGHENY",42003,"PA",15106,3,0,"VIVIANO MACARONI CO, GROCERY","W NOBLESTOWN RD","CARNEGIE","PA",NA,NA,"15106","C",NA,NA,"001338797","BORDEN INC",402612,8e+05,40.3961,80.1119,500,"I1","UN","1","J","1000",0,"BORDEN PUBLIC AFFAIRS COLUMBUS OHIO",6142254422,NA,NA,NA,NA,NA
"15056CDMFGAVEBX","CODO MANUFACTURING CORP","7 AVE B BUNCHER INDUSTRIAL DISTRICT","LEETSDALE","ALLEGHENY",42003,"PA",150560056,3,0,"CODO MANUFACTURING CORP","7 AVE B BUNCHER INDUSTRIAL DISTRICT","LEETSDALE","PA",NA,NA,"15056-0056","C",NA,NA,NA,NA,403337,801232,40.560278,80.208889,11000,"UN","UN","1","U","1000",0,"GARY T WARZYNSKI",4127412010,NA,NA,NA,NA,NA
"15225SHLND2650N","INEOS COMPOSITES US LLC","2650 NEVILLE RD","PITTSBURGH","ALLEGHENY",42003,"PA",15225,3,0,"INEOS COMPOSITES US LLC","2650 NEVILLE RD","PITTSBURGH","PA",NA,NA,"15225","C",NA,NA,"116877629","INEOS COMPOSITES US LLC",403000,800500,NA,NA,NA,NA,NA,NA,NA,NA,0,"KARA LONG",6147909295,"KARA.LONG@INEOSCOMPOSITES.COM",NA,NA,NA,110000329653
"15106THPTTKEYST","THEPITT MFG CO","KEYSTONE DR","CARNEGIE","ALLEGHENY",42003,"PA",151060000,3,1,"THEPITT MFG CO","KEYSTONE DR","CARNEGIE","PA",NA,NA,"15106-0000","C",NA,NA,NA,"RE-HIDE INC",402357,800720,40.399167,80.122222,11000,"UN","UN","1","U","1000",0,"RONALD D. ROESSLER",NA,NA,NA,NA,NA,NA
"15106TLDYNARCHS","TELEDYNE INC, TELEDYNE COLUMBIA SUMMERILL","ARCH ST","CARNEGIE","ALLEGHENY",42003,"PA",15106,3,1,"TELEDYNE INC, TELEDYNE COLUMBIA SUMMERILL","ARCH ST","CARNEGIE","PA",NA,NA,"15106","C",NA,NA,NA,"ALLEGHENY TELEDYNE INC",402505,800442,40.418056,80.078333,11000,"UN","UN","1","U","1000",0,NA,NA,NA,NA,NA,NA,NA
"15139TRNGL931TH","GLOBAL CIRCUITS INC.","931 3RD ST","OAKMONT","ALLEGHENY",42003,"PA",15139,3,0,"GLOBAL CIRCUITS INC.","931 3RD ST","OAKMONT","PA",NA,NA,"15139","C",NA,NA,NA,"MBG TECHNOLOGIES INC.",403137,795033,40.526389,79.843056,150,"UN","UN","1","U","1010",0,"JAMES R CLARK",4128285322,"JCLARK@GLOBALCIRCUITS.COM",NA,"MBG TECHNOLOGIES INC",NA,110000329396
"15135DVNCD1001E","AMI DODUCO INC  PLANT #1","1001 E SMITHFIELD ST","MC KEESPORT","ALLEGHENY",42003,"PA",15135,3,0,"AMI DODUCO INC.","1003 CORPORATE LN. WESTMORELAND","EXPORT","PA",NA,NA,"15632","C",NA,NA,"002300556","TECHNITROL INC",401855,794758,40.315278,79.798333,11000,"UN","UN","1","U","1000",0,NA,NA,NA,NA,NA,NA,NA
"15233MRCNL1207C","AMERICAN ELECTRONIC","1207 COLUMBUS AVE","PITTSBURGH","ALLEGHENY",42003,"PA",15233,3,1,"AMERICAN ELECTRONIC","1207 COLUMBUS AVE","PITTSBURGH","PA",NA,NA,"15233","C",NA,NA,"007023898","FL IND",402728,800150,40.457778,80.030556,150,"UN","UN","1","U","1010",0,"HERBERT L. BRADSHAW II",6013425185,NA,NA,NA,NA,NA
"15234CHLDS901KI","LOZIER-CHILDS INCORPORATED","901 KILLARNEY DRIVE","PITTSBURGH","ALLEGHENY",42003,"PA",152342624,3,0,"LOZIER-CHILDS INCORPORATED","901 KILLARNEY DRIVE","PITTSBURGH","PA",NA,NA,"15234-2624","C",NA,NA,"007259484","LOZIER CORP",402235,800026,40.376389,80.007222,150,"UN","UN","1","U","1010",0,"TONY MARANDO",4128857300,NA,NA,NA,NA,NA
"15116GLNSH1101W","GLENSHAW GLASS CO INC","1101 WILLIAM FLYNN HWY","GLENSHAW","ALLEGHENY",42003,"PA",15116,3,0,"GLENSHAW GLASS CO INC","1101 WILLIAM FLYNN HWY","GLENSHAW","PA",NA,NA,"15116","C",NA,NA,NA,NA,403115,795710,40.520833,79.952778,11000,"UN","UN","1","U","1000",0,"DENNIS WEICHEL",4124869100,NA,NA,NA,NA,NA
"15148LLGHN999AI","ALLEGHENY PETROLEUM PRODUCTS CO","999 AIRBRAKE AVE","WILMERDING","ALLEGHENY",42003,"PA",15148,3,0,"ALLEGHENY PETROLEUM PRODUCTS CO","999 AIRBRAKE AVE","WILMERDING","PA",NA,NA,"15148","C",NA,NA,NA,"ALLEGHENY PETROLEUM PRODUCTS CO",402348,794849,NA,NA,NA,NA,NA,NA,NA,NA,0,"GERALD HAWK",4124570189,"GHAWK@OILS.COM",NA,"ALLEGHENY PETROLEUM PRODUCTS CO",NA,110001138616
"15025TYKRF301BR","LARGE PLANT OF TYK AMERICA INC","301 BRICKYARD RD","CLAIRTON","ALLEGHENY",42003,"PA",15025,3,0,"LARGE PLANT OF TYK AMERICA INC","301 BRICKYARD RD","CLAIRTON","PA",NA,NA,"15025","C",NA,NA,NA,NA,401719,795517,40.288333,79.921667,150,"UN","UN","1","U","1010",0,"ALAN CHALFANT",4123844259,NA,NA,NA,NA,110000328841
"15225GLFLL5050G","GULF OIL LP NEVILLE ISLAND TERMINAL","2620 NEVILLE ROAD","PITTSBURGH","ALLEGHENY",42003,"PA",15225,3,0,"GULF OIL LP NEVILLE ISLAND TERMINAL","80 WILLIAM STREET, STE 400","WELLESLEY","MA",NA,NA,"02481","C",NA,NA,"147037154","GULF OIL LP",402950,800500,NA,NA,NA,NA,NA,NA,NA,NA,0,"CHRISTOPHER E. GILL",3399337046,"CGILL@GULFOIL.COM",NA,"GULF OIL LP",NA,110000877052
"15143STRLN9OHIO","STERLING GROUP","9 OHIO RIVER BLVD","SEWICKLEY","ALLEGHENY",42003,"PA",151432199,3,0,"STERLING GROUP","109 ACCORD PARK DR.","NORWELL","MA",NA,NA,"02061","C",NA,NA,"049881956","NU-BRITE CHEMICAL CO",403130,800930,40.525,80.158333,150,"UN","UN","1","U","1010",0,"SAMNMY DALVA",5144427923,NA,NA,NA,NA,NA
"15088SYLVNSECON","CONSUMERS WOOD PRESERVING CO","2ND ST","WEST ELIZABETH","ALLEGHENY",42003,"PA",15088,3,0,"CONSUMERS WOOD PRESERVING CO.","1 CHICAGO AVE.","ELIZABETH","PA",NA,NA,"15037","C",NA,NA,"008939902","WEST ELIZABETH LUMBER CO",401551,795356,40.264167,79.898889,11000,"UN","UN","1","U","1000",0,"CARL D. SHAFFER",4123843900,NA,NA,NA,NA,NA
"15215NTWLD1600S","NATIONAL TORCH TIP INC NATIONAL WELDING ALLOYS INC DIV","1600 S CANAL ST","PITTSBURGH","ALLEGHENY",42003,"PA",152152640,3,0,"MILLER ELECTRIC MANUFACTURING CO.","P.O. BOX 1079","APPLETON","WI",NA,NA,"54912-1079","C",NA,NA,"005146428","ILLINOIS TOOL WORKS INC",402948,795533,40.496667,79.925833,11000,"UN","UN","1","U","1000",0,NA,NA,NA,NA,NA,NA,NA
"15148GRPHC212FI","GRAPHIC CONTROLS CORP","212 5TH ST","WILMERDING","ALLEGHENY",42003,"PA",151481097,3,1,"GRAPHIC CONTROLS CORP","212 5TH ST","WILMERDING","PA",NA,NA,"15148-1097","C",NA,NA,"002111896","GRAPHIC CONTROLS CORP",402420,794900,40.405556,79.816667,150,"UN","UN","1","U","1010",0,"MAY RANDAZZO",7168537500,NA,NA,NA,NA,NA
"15122SFTYK650NO","SAFETY-KLEEN SYSTEMS WEST MIFFLIN (WMP)","650 NOBLE DR","WEST MIFFLIN","ALLEGHENY",42003,"PA",15122,3,0,"SAFETY-KLEEN SYSTEMS WEST MIFFLIN (WMP)","650 NOBLE DR","WEST MIFFLIN","PA",NA,NA,"15122","C",NA,NA,"157793639","CLEAN HARBORS INC",402312,795322,NA,NA,NA,NA,NA,NA,NA,NA,0,"SCOTT HRABAR",4124620644,"SCOTT.HRABAR@SAFETY-KLEEN.COM",NA,"CLEAN HARBORS INC",NA,110000329314
"15201XXNCM34THS","EXXON CO USA PITTSBURGH PLANT","100 35TH ST","PITTSBURGH","ALLEGHENY",42003,"PA",15201,3,0,"EXXON CO. USA","1031 MIDDLESEX ST.","GIBSONIA","PA",NA,NA,"15044","C",NA,NA,"001213214","EXXON CORP",402752,795814,40.46,79.971944,11000,"UN","UN","1","U","1000",0,"RICHARD J. CIERI",7244491320,NA,NA,NA,NA,NA
"15238SCHND620AL","CAPINTEC INC","620 ALPHA DR","PITTSBURGH","ALLEGHENY",42003,"PA",15238,3,1,"CAPINTEC INC","620 ALPHA DR","PITTSBURGH","PA",NA,"UNITED STATES","15238-2912","C",NA,NA,NA,NA,433040,795010,40.503823,79.871533,150,"A1","PG","1","J","1000",0,"MARY ANNE YUSKO",2018259500,"MARYANNE.YUSKO@CAPINTEC.COM",NA,NA,312,110000819106
"15017CYTMPMAYER","UNIVERSAL STAINLESS & ALLOY PRODUCTS INC","600 MAYER ST","BRIDGEVILLE","ALLEGHENY",42003,"PA",15017,3,0,"UNIVERSAL STAINLESS & ALLOY PRODUCTS INC","600 MAYER ST","BRIDGEVILLE","PA",NA,NA,"15017","C",NA,NA,NA,"UNIVERSAL STAINLESS & ALLOY PRODUCTS INC",402152,800604,40.364444,80.101111,11000,"UN","UN","1","U","1000",0,"MIKE ALDERSON",3305997044,"M.ALDERSON@UNIVSTAINLESS.COM",NA,"UNIVERSAL STAINLESS & ALLOY PRODUCTS INC",NA,110000328743
"15275SHNDN171IN","THERMO FISHER SCIENTIFIC","171 INDUSTRY DR","PITTSBURGH","ALLEGHENY",42003,"PA",15275,3,1,"THERMO FISHER SCIENTIFIC","171 INDUSTRY DR","PITTSBURGH","PA",NA,NA,"15275","C",NA,NA,"001408673","THERMO FISHER SCIENTIFIC INC",402735,801225,40.424796,80.041621,150,"A1","PG","1","J","1000",0,"DON HERBST",4124893410,"DON.HERBST@THERMOFISHER.COM",NA,"THERMO FISHER SCIENTIFIC INC",NA,110000329779
"15225SHNNG3100G","SHENANGO INC NEVILLE ISLAND FNDY DIV","3100 GRAND AVE","PITTSBURGH","ALLEGHENY",42003,"PA",15225,3,0,"SHENANGO INC NEVILLE ISLAND FNDY DIV","3100 GRAND AVE","PITTSBURGH","PA",NA,NA,"15225","C",NA,NA,"153745443","BOGGS CORP",403029,800617,40.508056,80.104722,150,"UN","UN","1","U","1010",0,"NICHOLAS BUCHKO",4127776655,NA,NA,NA,NA,NA
"15202SCHFF21HER","SCHAFFNER MFG CO","21 HERRON AVE","PITTSBURGH","ALLEGHENY",42003,"PA",15202,3,0,"SCHAFFNER MFG CO","21 HERRON AVE","PITTSBURGH","PA",NA,NA,"15202","C",NA,NA,NA,NA,403015,800518,40.504167,80.088333,11000,"UN","UN","1","U","1000",0,"GUS J. SCHAFFNER III",4127619902,NA,NA,NA,NA,NA
"15007STHWSMIDDL","EXXONMOBIL LUBRICANTS & PETROLEUM SPECIALTIES CO","1031 MIDDLESEX ST BAKERSTOWN PLANT","BAKERSTOWN","ALLEGHENY",42003,"PA",15007,3,1,"EXXONMOBIL LUBRICANTS & PETROLEUM SPECIALTIES CO","1031 MIDDLESEX ST BAKERSTOWN PLANT","BAKERSTOWN","PA",NA,NA,"15007","C",NA,NA,"001213214","EXXONMOBIL CORP",403950,795805,40.6433,79.931889,5000,"C2","UN","1","U","0000",0,"RAY RAMIREZ",2814803769,NA,NA,NA,NA,NA
"15017MTHWS580MA","MATHEWS MARBLE MANUFACTURING","580 MAYER ST, BLDG 7","BRIDGEVILLE","ALLEGHENY",42003,"PA",150172709,3,0,"MATHEWS MARBLE MANUFACTURING","580 MAYER ST, BLDG 7","BRIDGEVILLE","PA",NA,NA,"15017-2709","C",NA,NA,NA,NA,402155,800615,40.365278,80.104167,11000,"UN","UN","1","U","1000",0,"C. E. CLEMENT",4122579522,NA,NA,NA,NA,NA
"15225NVLLC2800N","NEVILLE CHEMICAL CO","2800 NEVILLE RD","PITTSBURGH","ALLEGHENY",42003,"PA",15225,3,0,"NEVILLE CHEMICAL CO","2800 NEVILLE RD","PITTSBURGH","PA",NA,NA,"15225","C",NA,NA,NA,NA,403010,800557,40.502778,80.099167,150,"UN","UN","1","U","1010",0,"DANIEL KOKOSKI",4123314200,"DKOKOSKI@NEVCHEM.COM",NA,NA,NA,110000329644
"15044PNNRG1239O","PANNIER GRAPHIC DIV","1239 OAK RD","GIBSONIA","ALLEGHENY",42003,"PA",15044,3,0,"PANNIER GRAPHIC DIV","1239 OAK RD","GIBSONIA","PA",NA,NA,"15044","C",NA,NA,"004320982","PANNIER CORP",NA,NA,40.6352,79.9435,11000,"Z1","UN","1","U","0000",0,"JEFF HEDDAEUS",NA,NA,NA,NA,NA,NA
"15217KPPRSMILLE","REICHHOLD INC","1000 PRESTO-SYGAN RD","BRIDGEVILLE","ALLEGHENY",42003,"PA",15017,3,0,"REICHHOLD INC","1000 PRESTO-SYGAN RD","BRIDGEVILLE","PA",NA,NA,"15017","C",NA,NA,NA,NA,402135,800730,40.359722,80.125,600,"UN","UN","1","U","1010",0,"BRUCE E. MCCALL",8504337621,NA,NA,NA,NA,NA
"15108RBWCRNARRO","RB & W CORP","NARROWS RUN RD","CORAOPOLIS","ALLEGHENY",42003,"PA",15108,3,0,"RB & W CORP","NARROWS RUN RD","CORAOPOLIS","PA",NA,NA,"15108","C",NA,NA,NA,NA,403300,801200,40.55,80.2,11000,"UN","UN","1","U","1000",0,"RONALD L. NORDSTORM",4127711313,NA,NA,NA,NA,NA
"15225KSMSC200NE","KOSMOS CEMENT CO","200 NEVILLE RD","PITTSBURGH","ALLEGHENY",42003,"PA",15225,3,0,"KOSMOS CEMENT CO","200 NEVILLE RD","PITTSBURGH","PA",NA,NA,"15225","C",NA,NA,NA,NA,402929,800404,40.483333,80.066667,11000,"UN","UN","1","U","1000",0,"DAN HEINTZ",7136536956,NA,NA,NA,NA,NA
"15135DVNCD1028E","ADVANCED METALLURGY INC PLANT 1","1028 E SMITHFIELD ST","MC KEESPORT","ALLEGHENY",42003,"PA",151350091,3,0,"ADVANCED METALLURGY INC. PLANT 1","1003 CORPORATE DR.","EXPORT","PA",NA,NA,"15632","C",NA,NA,"002300556","TECHNITROL INC",401900,794801,40.316667,79.800278,11000,"UN","UN","1","U","1000",0,"LARRY J. GAUDINO",4127338332,NA,NA,NA,NA,NA
"15236BLMNGHARNI","BLOOM ENGINEERING CO INC","HORNING & CURRY RD","PITTSBURGH","ALLEGHENY",42003,"PA",15236,3,0,"BLOOM ENGINEERING CO INC","HORNING & CURRY RD","PITTSBURGH","PA",NA,NA,"15236","C",NA,NA,NA,NA,402013,795930,40.336944,79.991667,150,"UN","UN","1","U","1010",0,"DAVID G TODD",4126533500,NA,NA,NA,NA,110007389833
"15147RBRYNRIVER","ROBROY INDUSTRIES","RIVER RD","VERONA","ALLEGHENY",42003,"PA",15147,3,0,"ROBROY INDS.","3065 E. WATER ST., P.O. BOX 709","FREMONT","IN",NA,NA,"46737","C",NA,NA,NA,"ROBROY INDS",402842,795040,40.5113,79.844,500,"I1","UN","1","J","1000",0,"BRUCE SKIBINSKI",2194959815,NA,NA,NA,NA,NA
"15045TCHMT15ALL","TECH MET INC","15 ALLEGHENY SQUARE","GLASSPORT","ALLEGHENY",42003,"PA",15045,3,0,"TECH MET INC","15 ALLEGHENY SQUARE","GLASSPORT","PA",NA,NA,"15045","C",NA,NA,NA,NA,402110,795340,NA,NA,NA,NA,NA,NA,NA,NA,0,"ROGER CRAWFORD",7249531753,"RCRAWFORD@TECHMETINC.COM",NA,NA,NA,110000819179
"15136CLGST1400F","NORTH COAST CALIG CORP","1400 FLEMING AVE","MC KEES ROCKS","ALLEGHENY",42003,"PA",151360418,3,0,"NORTH COAST CALIG CORP.","8806 CRANE AVE.","CLEVELAND","OH",NA,NA,"44105-1622","C",NA,NA,"107857856","NORTH COAST CALIG CORP",402908,800422,40.486111,80.073056,150,"UN","UN","1","U","1010",0,"DAVID F. MILLER",2164416214,NA,NA,NA,NA,NA
"15007BKRSTMIDDL","BAKERSTOWN CONTAINER CORP","BOX 51 MIDDLESEX ST","BAKERSTOWN","ALLEGHENY",42003,"PA",15007,3,0,"BAKERSTOWN CONTAINER CORP","BOX 51 MIDDLESEX ST","BAKERSTOWN","PA",NA,NA,"15007","C",NA,NA,NA,NA,403948,795756,40.663333,79.965556,600,"UN","UN","1","U","2010",0,"LARRY DAVIS   EXT 228",7244437255,NA,NA,NA,NA,NA
"15238BCHRC625AL","MEDRAD, INC. HEILMAN CENTER","625 ALPHA DR","PITTSBURGH","ALLEGHENY",42003,"PA",15238,3,0,"MEDRAD, INC.","ONE MEDRAD DR","INDIANOLA","PA",NA,NA,"15051","C",NA,NA,"093170199","SCHERING BERLIN INC",403019,795227,40.5,79.875,150,"UN","UN","1","U","1010",0,"LUANNE RADEMACHER",4127672400,NA,NA,NA,NA,110050463877
"15030PPGNDRTE28","PITTSBURGH GLASS WORKS CREIGHTON","150 FERRY ST","CREIGHTON","ALLEGHENY",42003,"PA",15030,3,1,"PITTSBURGH GLASS WORKS CREIGHTON","150 FERRY ST","CREIGHTON","PA",NA,NA,"15030","C",NA,NA,"028117104","LKQ CORP (DE)",403520,794620,40.588889,79.772222,11000,"UN","UN","1","U","1000",0,"JOHN M. FELKER",7242266865,"JFELKER@PGWGLASS.COM",NA,"LKQ CORP (DE)",NA,110000328850
"15030FRPRTBAILI","FREEPORT BRICK CO ALLEGHENY PLANT","BAILIES RUN RD","CREIGHTON","ALLEGHENY",42003,"PA",15030,3,0,"FREEPORT BRICK CO. ALLEGHENY PLANT","DRAWER F","FREEPORT","PA",NA,NA,"16229-0306","C",NA,NA,"004318911","FREEPORT AREA ENTS INC",403600,704700,40.5848,79.7812,11000,"Z1","UN","1","U","0000",0,"F. H. LAUBE",4122952111,NA,NA,NA,NA,NA
"15144PPGND125CO","PPG INDUSTRIESINC-SPRINGDALE COMPLEX","125 COLFAX ST","SPRINGDALE","ALLEGHENY",42003,"PA",15144,3,0,"PPG INDUSTRIESINC-SPRINGDALE COMPLEX","125 COLFAX ST","SPRINGDALE","PA",NA,NA,"15144","C",NA,NA,"001344803","PPG INDUSTRIES INC",403146,794709,40.529444,79.785833,500,"UN","UN","1","U","1010",0,"MICHAEL P. WEBB",7242743889,"MWEBB@PPG.COM",NA,"PPG INDUSTRIES INC",NA,110000329403
"15201PTTSB3340L","PITTSBURGH BREWING CO","3340 LIBERTY AVE","PITTSBURGH","ALLEGHENY",42003,"PA",15201,3,0,"PITTSBURGH BREWING CO","3340 LIBERTY AVE","PITTSBURGH","PA",NA,NA,"15201","C",NA,NA,NA,"KEYSTONE BREWERS INC",402700,801130,40.4617,79.967121,150,"A1","PG","1","J","1000",0,"KEVIN MORGAN",4126921175,NA,NA,NA,NA,NA
"15030PTTPNPOBOX","PITT PENN OIL CO. LLC","426 FREEPORT RD","CREIGHTON","ALLEGHENY",42003,"PA",15030,3,0,"PITT PENN OIL CO. LLC.","PO BOX 296","CREIGHTON","PA",NA,NA,"150300296","C",NA,NA,"027887822","INDUSTRIAL ENTERPRISES OF AMERICA INC",403431,794637,40.582,79.7789,500,"I1","UN","1","J","1000",0,"DENNIS RITZERT",7242262712,"INFO@PITTPENN.COM",NA,NA,NA,110000328869
"15108PTTSB301TH","PITTSBURGH FORGINGS CO","301 THORN ST","CORAOPOLIS","ALLEGHENY",42003,"PA",15108,3,0,"PITTSBURGH FORGINGS CO","301 THORN ST","CORAOPOLIS","PA",NA,NA,"15108","C",NA,NA,NA,NA,403131,801016,40.525278,80.171111,150,"UN","UN","1","U","1010",0,"GARY HATTON",4122694036,NA,NA,NA,NA,NA
"15201PRSSR3419S","PRESSURE CHEMICAL CO","3419 SMALLMAN ST","PITTSBURGH","ALLEGHENY",42003,"PA",15201,3,0,"PRESSURE CHEMICAL CO","3419 SMALLMAN ST","PITTSBURGH","PA",NA,NA,"15201","C",NA,NA,NA,NA,402750,795808,40.463889,79.968889,150,"UN","UN","1","U","1010",0,"JAY A. PENWELL",4126825882,"JPENWELL@PRESSCHEM.COM",NA,NA,NA,110000329467
"15215PRTNP1NORT","PURITAN PAINT & OIL CO","#1 N MAIN ST","PITTSBURGH","ALLEGHENY",42003,"PA",152152016,3,0,"PURITAN PAINT & OIL CO","#1 N MAIN ST","PITTSBURGH","PA",NA,NA,"15215-2016","C",NA,NA,NA,NA,402940,795630,40.494444,79.941667,150,"UN","UN","1","U","1010",0,"ANTHONY J. ISACCO II",4127840822,NA,NA,NA,NA,NA
"15204PRTTSTABOR","PRUETT-SCHAFFER CHEMICAL CO INC.","3327 STAFFORD ST","PITTSBURGH","ALLEGHENY",42003,"PA",15204,3,0,"PRUETT-SCHAFFER CHEMICAL CO INC.","3327 STAFFORD ST","PITTSBURGH","PA",NA,NA,"15204","C",NA,NA,NA,NA,402746,800310,40.462778,80.052778,600,"UN","UN","1","U","1010",0,"WILLIAM COYLE",4127712000,"WILL@PRUETT-SCHAFFER.COM",NA,"PRUETT-SCHAFFER CHEMICAL CO INC",NA,110000329528
"15106BWMNMFIRST","ARMCO INC, BOWMAN METAL DECK DIV PLANT","1ST ST & ELLSWORTH AVE","HEIDELBERG","ALLEGHENY",42003,"PA",15106,3,1,"ARMCO INC., BOWMAN METAL DECK DIV. PLANT","P.O. BOX 260","PITTSBURGH","PA",NA,NA,"15230","C",NA,NA,"001211879","ARMCO INC",402342,800532,40.395,80.092222,150,"UN","UN","1","U","1010",0,"DANIEL SZWED, P.E.",4122842267,NA,NA,NA,NA,NA
"15116BLLCH1114W","RANBAR TECHNOLOGY INC","1114 WILLIAM FLINN HWY","GLENSHAW","ALLEGHENY",42003,"PA",15116,3,0,"RANBAR TECHNOLOGY INC","PO BOX 607","MANOR","PA",NA,NA,"15665","C",NA,NA,"004336863","RANBAR TECHNOLOGY INC",403116,795650,40.521111,79.947222,11000,"UN","UN","1","U","1000",0,"JOSEPH FEDEROFF",7248648254,NA,NA,NA,NA,NA
"15205BRDNN650MA","BORDEN INC DAIRY","650 MANSFIELD AVE","PITTSBURGH","ALLEGHENY",42003,"PA",15205,3,1,"BORDEN INC DAIRY","650 MANSFIELD AVE","PITTSBURGH","PA",NA,NA,"15205","C",NA,NA,"001338797","BORDEN INC",402300,800600,40.4381,80.0937,11000,"Z1","UN","1","U","0000",0,"EUGENE J DISCHNER",4129285421,NA,NA,NA,NA,NA
"15136PTTSBBUILD","PITTSBURGH ANNEALING BOX CO","MCKEES ROCKS INDUSTRIALL ENTERPRISES BUILDING 40 N","MC KEES ROCKS","ALLEGHENY",42003,"PA",15136,3,0,"PITTSBURGH ANNEALING BOX CO","685 STATE ST","VANPORT","PA",NA,NA,"15009","C",NA,NA,NA,NA,402850,800335,40.4493,80.028278,600,"A2","PG","1","J","1000",0,"LEONARD LISCIO",7243713059,NA,NA,NA,NA,110000603384
"15238CHSCR128FI","CHASE CORP-PITTSBURGH","128 FIRST ST","PITTSBURGH","ALLEGHENY",42003,"PA",15238,3,0,"CHASE CORP-PITTSBURGH","128 FIRST ST","PITTSBURGH","PA",NA,NA,"15238","C",NA,NA,"001359769","CHASE CORP",402915,795305,40.4875,79.884722,150,"UN","UN","1","U","1010",0,"JOHN MARINE",4017225500,"JMARINE@CHASECORP.COM",NA,"CHASE CORP",7801,110000329733
"15136SCHRDNICHO","SCHROEDER INDUSTRIES","NICHOL AVE","MC KEES ROCKS","ALLEGHENY",42003,"PA",15136,3,0,"SCHROEDER INDUSTRIES","P.O. BOX 72","MC KEES ROCKS","PA",NA,NA,"15136","C",NA,NA,"108839168","ALCO INDUSTRIES INC",292151,603809,40.4684,80.109,11000,"Z1","UN","1","U","0000",0,"MICAHEL CAMINO",4127714810,NA,NA,NA,NA,NA
"15136MTLLR149NI","MSSI INC","149 NICHOL AVE","MC KEES ROCKS","ALLEGHENY",42003,"PA",15136,3,1,"MSSI INC","149 NICHOL AVE","MC KEES ROCKS","PA",NA,NA,"15136","C",NA,NA,NA,NA,402851,800349,40.480833,80.063611,150,"UN","UN","1","U","1010",0,"DONALD K. WISEMAN JR.",4127715533,NA,NA,NA,NA,NA
"15106THHMM235HO","O HOMMEL CO","235 HOPE ST","CARNEGIE","ALLEGHENY",42003,"PA",15106,3,0,"O HOMMEL CO","235 HOPE ST","CARNEGIE","PA",NA,NA,"15106","C",NA,NA,NA,NA,402348,800504,40.396667,80.084444,150,"UN","UN","1","U","1010",0,"JOHN J LEN",4122790700,NA,NA,NA,NA,NA
"15084NTDBR344W6","UNITED BRONZE OF PITTSBURGH","344 W 6TH AVE","TARENTUM","ALLEGHENY",42003,"PA",15084,3,0,"UNITED BRONZE OF PITTSBURGH","P.O. BOX 317","CREIGHTON","PA",NA,NA,"15030","C",NA,NA,NA,NA,403552,794550,40.597778,79.763889,11000,"UN","UN","1","U","1000",0,"ROBERT E. ORRINGON",4122268500,NA,NA,NA,NA,NA
"15238PPRCRPAPER","PAPERCRAFT CORP GIFTWRAP DIV","PAPERCRAFT PARK","PITTSBURGH","ALLEGHENY",42003,"PA",15238,3,0,"PAPERCRAFT CORP GIFTWRAP DIV","PAPERCRAFT PARK","PITTSBURGH","PA",NA,NA,"15238","C",NA,NA,"004328365","PAPERCRAFT CORP",402934,795136,40.492778,79.86,11000,"UN","UN","1","U","1000",0,"ROGER FONTAINE",4123628000,NA,NA,NA,NA,NA
"15139NTDST1155A","MID-AMERICA PACKAGING","1155 ALLEGHENY AVE","OAKMONT","ALLEGHENY",42003,"PA",15139,3,1,"MID-AMERICA PACKAGING","1155 ALLEGHENY AVE","OAKMONT","PA",NA,NA,"15139","C",NA,NA,"148336977","GAYLORD CONTAINER CORP",403143,795015,40.528611,79.8375,150,"UN","UN","1","U","1010",0,"MARK HARRIS",4128283905,NA,NA,NA,NA,NA
"15030RPRDCRTE28","AIR PRODUCTS & CHEMICALS INC CREIGHTON PA FAC","RTE 28  FREEPORT RD","CREIGHTON","ALLEGHENY",42003,"PA",15030,3,0,"AIR PRODUCTS & CHEMICALS INC CREIGHTON PA FAC","RTE 28  FREEPORT RD","CREIGHTON","PA",NA,NA,"15030","C",NA,NA,"003001070","AIR PRODUCTS & CHEMICALS INC",403451,794659,40.580833,79.783056,11000,"UN","UN","1","U","1000",0,"R. L. SOBOTKA",4122261511,NA,NA,NA,NA,NA
"15201MTRCL32NDS","MOTOR COILS MANUFFACTURING CO","32ND ST & AVRR","PITTSBURGH","ALLEGHENY",42003,"PA",15201,3,0,"MOTOR COILS MANUFACTURING CO","1200 REEDSDALE ST","PITTSBURGH","PA",NA,NA,"15233","C",NA,NA,"859875437","MK RAIL CORP",402741,795804,40.461389,79.967778,11000,"UN","UN","1","U","1000",0,"RON MOCZYGEMBA",2083894865,NA,NA,NA,NA,NA
"15136PPSCL400GR","PEPSI-COLA CO","400 GRAHAM ST","MC KEES ROCKS","ALLEGHENY",42003,"PA",15136,3,0,"PEPSI-COLA CO","400 GRAHAM ST","MC KEES ROCKS","PA",NA,NA,"15136","C",NA,NA,"001287762","PEPSICO INC",402836,800322,40.476667,80.056111,150,"UN","UN","1","U","1010",0,"HENRY T. DLUGONSKI",4127784515,NA,NA,NA,NA,NA
"15226SMNSN1301S","PENNSYLVANIA ELECTRIC COIL LTD","1301 SAW MILL RUN BLVD","PITTSBURGH","ALLEGHENY",42003,"PA",15226,3,0,"PENNSYLVANIA ELECTRIC COIL LTD","1301 SAW MILL RUN BLVD","PITTSBURGH","PA",NA,NA,"15226","C",NA,NA,"004456836","MONARCH ELECTRIC SERVICE CO",402412,800004,40.40343,80.001415,150,"A1","PG","1","J","1000",0,NA,NA,NA,NA,NA,NA,NA
"15104PSTCN2158T","PESTCO INC","215 8TH ST","BRADDOCK","ALLEGHENY",42003,"PA",15104,3,0,"PESTCO INC","215 8TH ST","BRADDOCK","PA",NA,NA,"15104","C",NA,NA,"041723545","PESTCO INC",402355,795146,40.398611,79.862778,150,"UN","UN","1","U","1010",0,"ARNOLD ZLOTNIK",4123512100,NA,NA,NA,NA,NA
"18974PNNRCJOHNF","PANNIER GRAPHICS","345 OAK RD","GIBSONIA","ALLEGHENY",42003,"PA",15044,3,0,"PANNIER GRAPHICS","345 OAK RD","GIBSONIA","PA",NA,NA,"15044","C",NA,NA,"004320982","PANNIER CORP",403753,795303,40.6352,79.9435,11000,"Z1","UN","1","U","0000",0,"JEFFREY HEDDAEYS",7242654900,"JKH@PANNIER.COM",NA,"PANNIER CORP",203,110002341573
"15147PNNXPEASTE","PENNEX LABS INC","1 PENNEX DR","VERONA","ALLEGHENY",42003,"PA",151473998,3,0,"PENNEX LABS. INC.","851 BROKEN SOUND N.W.","BOCA RATON","FL",NA,NA,"33487-3625","C",NA,NA,"092834233","REXALL SUNDOWN INC",403100,794900,40.5253,79.8544,500,"I1","UN","1","J","1000",0,"HENRY ROSEN",4128282900,NA,NA,NA,NA,NA
"15025MRTHN1100G","MARATHON PETROLEUM CO - FLOREFFE PA ASPHALT TERMINAL","1100 GLASS HOUSE RD","JEFFERSON HILLS","ALLEGHENY",42003,"PA",15025,3,0,"MARATHON PETROLEUM CO - FLOREFFE PA ASPHALT TERMINAL","539 S MAIN ST","FINDLAY","OH",NA,NA,"45840","C",NA,NA,"968393996","MARATHON PETROLEUM CORP",401529,795454,NA,NA,NA,NA,NA,NA,NA,NA,0,"GREG MOORE",4194213774,"WGMOORE@MARATHONPETROLEUM.COM",NA,"MARATHON PETROLEUM CORP",NA,110025330586
"15136GRDNT1000E","GORDON TERMINAL SERVICE CO OF PA","1000 AGNES ST","MC KEES ROCKS","ALLEGHENY",42003,"PA",15136,3,0,"GORDON TERMINAL SERVICE CO OF PA","PO BOX 313","MC KEES ROCKS","PA",NA,"UNITED STATES","15136","C",NA,NA,NA,"GORDON TERMINAL SERVICE CO OF PA",0,0,NA,NA,NA,NA,NA,NA,NA,NA,0,"TIMOTHY GORDON",4123319410,"THGORDON@GTSCOFPA.COM",NA,"GORDON TERMINAL SERVICE CO OF PA",NA,110064225057
"15233DQSNL2601P","DUQUESNE LIGHT CO PREBLE HEADQUARTERS","2601 PREBLE AVE","PITTSBURGH","ALLEGHENY",42003,"PA",15233,3,0,"DUQUESNE LIGHT CO PREBLE HEADQUARTERS","2601 PREBLE AVE","PITTSBURGH","PA",NA,NA,"15233","C",NA,NA,"608738464","DUQUESNE LIGHT CO",402739,8002000,NA,NA,NA,NA,NA,NA,NA,NA,0,"EDWARD KAPPLER",4123938806,NA,NA,NA,NA,NA
"15233DQSNL2101B","DUQUESNE LIGHT CO MANCHESTER FACILITY","2101 BEAVER AVE","PITTSBURGH","ALLEGHENY",42003,"PA",15233,3,0,"DUQUESNE LIGHT CO MANCHESTER FACILITY","2101 BEAVER AVE","PITTSBURGH","PA",NA,NA,"15233","C",NA,NA,"608738464","DUQUESNE LIGHT CO",402739,800200,NA,NA,NA,NA,NA,NA,NA,NA,0,"EDWARD KAPPLER",4123938806,NA,NA,NA,NA,NA
"15131PTRND1224L","APTER INDUSTRIES INC","1224 LONG RUN RD","MC KEESPORT","ALLEGHENY",42003,"PA",151312035,3,0,"APTER INDS INC","PO BOX 456","MC KEESPORT","PA",NA,NA,"15134-0456","C",NA,NA,NA,NA,402005,791842,40.334182,79.812197,150,"A1","PG","1","J","1000",0,"ROBERT J HOLMES",4126729628,NA,NA,NA,NA,NA
"15120MGNTK800MA","PITTSBURGH ELECTRICAL INSULATION","800 MARTHA ST","MUNHALL","ALLEGHENY",42003,"PA",15120,3,0,"PITTSBURGH ELECTRICAL INSULATION","800 MARTHA ST","MUNHALL","PA",NA,NA,"15120","C",NA,NA,NA,NA,0,0,40.407778,79.899444,11000,"UN","UN","1","U","1000",0,"SCOTT REIDER",7249614141,"SR@PEIPITTSBURGH.COM",NA,NA,NA,110001027816
"15226MTTHW1211W","MATTHEWS INTERNATIONAL CORP","1211 W LIBERTY AVE","PITTSBURGH","ALLEGHENY",42003,"PA",15226,3,0,"MATTHEWS INTERNATIONAL CORP","1211 W LIBERTY AVE","PITTSBURGH","PA",NA,NA,"15226","C",NA,NA,NA,NA,400300,800200,40.404167,80.011111,11000,"UN","UN","1","U","1000",0,"CHRISTIAN S. SPATARO",4127882111,NA,NA,NA,NA,NA
"15226MTTHW1315W","MATTHEWS INTERNATIONAL CORP","1315 W LIBERTY AVE","PITTSBURGH","ALLEGHENY",42003,"PA",15226,3,0,"MATTHEWS INTERNATIONAL CORP","1315 W LIBERTY AVE","PITTSBURGH","PA",NA,NA,"15226","C",NA,NA,NA,"MATTHEWS INTERNATIONAL CORP",400300,800200,40.4119,80.010944,600,"A2","PG","1","J","1000",0,"YURIJ WOWCZUK",4124428279,"YWOWCZUK@MATW.COM",NA,"MATTHEWS INTERNATIONAL CORP",NA,110000329699
"15238MTTHW101FA","MATTHEWS INTERNATIONAL CORP","101 FAIRVIEW AVE","PITTSBURGH","ALLEGHENY",42003,"PA",15238,3,0,"MATTHEWS INTERNATIONAL CORP","101 FAIRVIEW AVE","PITTSBURGH","PA",NA,NA,"15238","C",NA,NA,NA,"MATTHEWS INTERNATIONAL CORP",402919,795014,40.494018,79.865201,150,"A1","PG","1","J","1000",0,"MARK REMLINGER",4124428200,NA,NA,NA,NA,110000329751
"15215NTLTR1700S","NATIONAL TORCH TIP INC WELDIT BLDG","1700 S CANAL ST","PITTSBURGH","ALLEGHENY",42003,"PA",152152640,3,1,"NATIONAL TORCH TIP, WELDIT BLDG.","50 FREEPORT RD.","PITTSBURGH","PA",NA,NA,"15215-2973","C",NA,NA,"015588510","ARCSMITH INC",402948,795533,40.496667,79.925833,11000,"UN","UN","1","U","1000",0,"LANE L. LISTON, JR.",4127814200,NA,NA,NA,NA,NA
"15147FFVLN1297E","AFFIVAL INC","1967 EASTERN AVE","VERONA","ALLEGHENY",42003,"PA",15147,3,0,"AFFIVAL INC","1967 EASTERN AVE","VERONA","PA",NA,NA,"15147","C",NA,NA,"119122471","AFFIVAL INC",403101,794847,NA,NA,NA,NA,NA,NA,NA,NA,0,"ED HILLIARD",7245588428,"EHILLIARD@ESMGROUPINC.COM",NA,"AFFIVAL INC",1318,110024422800
"15215NTNLT50FRE","NATIONAL TORCH TIP INC","50 FREEPORT RD","PITTSBURGH","ALLEGHENY",42003,"PA",152152973,3,0,"ILLINOIS TOOL WORKS INC.","3600 W. LAKE AVE.","GLENVIEW","IL",NA,NA,"60025","C",NA,NA,"005146428","ILLINOIS TOOL WORKS INC",402929,795433,40.491389,79.909167,11000,"UN","UN","1","U","1000",0,"KENNETH A. BROWN",8476574843,NA,NA,NA,NA,NA
"15017FLWSR1885M","FLOWSERVE CORP","1885 MAYVIEW RD","BRIDGEVILLE","ALLEGHENY",42003,"PA",15017,3,0,"FLOWSERVE CORP","1885 MAYVIEW RD","BRIDGEVILLE","PA",NA,NA,"15017","C",NA,NA,"004241550","FLOWSERVE CORP",503350,545710,NA,NA,NA,NA,NA,NA,NA,NA,0,"CHARLES KRUZAN",4122201021,"CKRUZAN@FLOWSERVE.COM",NA,"FLOWSERVE CORP",NA,110001114455
"15220MTHWS110SO","MATHEWS MARBLE MANUFACTURING","110 S MAIN ST","PITTSBURGH","ALLEGHENY",42003,"PA",15220,3,0,"MATHEWS MARBLE MFG.","580 MAYER ST., BLDG. 7","BRIDGEVILLE","PA",NA,NA,"15017","C",NA,NA,NA,NA,402627,800205,40.440833,80.034722,150,"UN","UN","1","U","1010",0,"C.E. CLEMENT",4122579522,NA,NA,NA,NA,NA
"15207GLVTC300MI","STEEL DYNAMICS INC - TECHS DIV - GALVTECH PLANT","300 MIFFLIN RD","PITTSBURGH","ALLEGHENY",42003,"PA",15207,3,0,"STEEL DYNAMICS INC - TECHS DIV - GALVTECH PLANT","300 MIFFLIN RD","PITTSBURGH","PA",NA,NA,"15207","C",NA,NA,"808202725","STEEL DYNAMICS INC",402318,795554,NA,NA,NA,NA,NA,NA,NA,NA,0,"ALLAN FLORES",4123684800,"ALLAN.FLORES@STEELDYNAMICS.COM",NA,"STEEL DYNAMICS INC",4817,110017384016
"15238BLWKNBLAWA","BLAW KNOX CORP BLAW KNOX EQUIPMENT DIV","BLAW AVE","BLAWNOX","ALLEGHENY",42003,"PA",15238,3,0,"BLAW KNOX CORP BLAW KNOX EQUIPMENT DIV","BLAW AVE","BLAWNOX","PA",NA,NA,"15238","C",NA,NA,"139440184","BLAW KNOX CORP",402930,795140,40.491667,79.861111,11000,"UN","UN","1","U","1000",0,"DAVE VESCHI",4127812700,NA,NA,NA,NA,NA
"15208HCHST218NB","HOECHSTETTER PRINTING","218 N BRADDOCK AVE","PITTSBURGH","ALLEGHENY",42003,"PA",15208,3,0,"HOECHSTETTER PRINTING","218 N BRADDOCK AVE","PITTSBURGH","PA",NA,NA,"15208","C",NA,NA,NA,"MOORE WALLACE INC",402651,795337,NA,NA,NA,NA,NA,NA,NA,NA,0,"JAKE ZOLLER",4122418200,NA,NA,NA,NA,NA
"15208BCKRN6905S","BECK/ARNLEY WORLD PARTS CORP","6905 SUSQUEHANNA ST","PITTSBURGH","ALLEGHENY",42003,"PA",15208,3,0,"BECK/ARNLEY WORLD PARTS CORP","6905 SUSQUEHANNA ST","PITTSBURGH","PA",NA,NA,"15208","C",NA,NA,"001168046","ECHLIN INC",402721,795420,40.455833,79.905556,150,"UN","UN","1","U","1010",0,"FRED HOFFMAN",4123614400,NA,NA,NA,NA,NA
"15207PTTSB4650S","LTV STEEL COMPANY INC PITTSBURGH WORKS","4650 SECOND AVENUE","PITTSBURGH","ALLEGHENY",42003,"PA",15207,3,0,"LTV STEEL COMPANY INC PITTSBURGH WORKS","4650 SECOND AVENUE","PITTSBURGH","PA",NA,NA,"15207","C",NA,NA,"112594213","LTV STEEL CO INC",402445,795646,40.4125,79.946111,150,"UN","UN","1","U","1010",0,"JIM KASTNER",4122275365,NA,NA,NA,NA,NA
"15233ZMMRM2020K","E.E. ZIMMERMAN CO","2020 KNOTT ST","PITTSBURGH","ALLEGHENY",42003,"PA",15233,3,0,"E.E. ZIMMERMAN CO","PO BOX 111254","PITTSBURGH","PA",NA,NA,"15238","C",NA,NA,"613251131","ZIMMERMAN HOLDING CO",402735,800147,40.459722,80.029722,150,"UN","UN","1","U","1010",0,"DINA  GODLESKI",4129630949,NA,NA,NA,NA,110000329724
"15056CLRWTINDUS","THE LUBRIZOL CORP","100 LEETSDALE INDUSTRIAL DR - BUILDINGS 72, 76, & 150","LEETSDALE","ALLEGHENY",42003,"PA",15056,3,0,"THE LUBRIZOL CORP","100 LEETSDALE INDUSTRIAL DRIVE","LEETSDALE","PA",NA,NA,"15056","C",NA,NA,"001024314","BERKSHIRE HATHAWAY INC",403346,801254,NA,NA,NA,NA,NA,NA,NA,NA,0,"EDWARD MICHALOWSKI",7243181038,"EDWARD.MICHALOWSKI@LUBRIZOL.COM",NA,"BERKSHIRE HATHAWAY INC",NA,110012212514
"15203QLTYR1101M","SUPERIOR FORGE & STEEL CORP","1101 MURIEL ST","PITTSBURGH","ALLEGHENY",42003,"PA",15203,3,0,"SUPERIOR FORGE & STEEL CORP","1101 MURIEL ST","PITTSBURGH","PA",NA,NA,"15203","C",NA,NA,NA,"SUPERIOR FORGE & STEEL CORP",402549,795914,40.4302,79.987298,150,"A1","PG","1","J","1000",0,"ROBERT E. DICKS JR.",4124318250,"BOBBYD@SFSROLLS.COM",NA,"SUPERIOR FORGE & STEEL CORP",136,110056123083
"15116STLBR1126B","EAST LIBERTY ELECTROPLATING INC","1126 BUTLER PLANK RD","GLENSHAW","ALLEGHENY",42003,"PA",15116,3,0,"EAST LIBERTY ELECTROPLATING INC","1126 BUTLER PLANK RD","GLENSHAW","PA",NA,NA,"15116","C",NA,NA,NA,NA,402905,795810,40.529,79.9532,150,"A1","PG","1","J","1000",0,"VINCENT KOVALIK",4129610517,NA,NA,NA,NA,NA
"15238CPNTC540AL","CAPINTEC INC","540 ALPHA DR","PITTSBURGH","ALLEGHENY",42003,"PA",15238,3,1,"CAPINTEC INC","540 ALPHA DR","PITTSBURGH","PA",NA,"UNITED STATES","15238","C",NA,NA,"047684501","CAPINTEC INC",402957,795218,40.499167,79.871667,150,"UN","UN","1","U","1010",0,"MARY ANNE DELL",4129631988,NA,NA,NA,NA,110000329742
"15225RSTCHNEVIL","SUNOCO INC. (R&M) NEVILLE ISLA ND PLANT","200 NEVILLE RD","PITTSBURGH","ALLEGHENY",42003,"PA",15225,3,0,"SUNOCO INC. (R&M) NEVILLE ISLA ND PLANT","200 NEVILLE RD","PITTSBURGH","PA",NA,NA,"15225","C",NA,NA,"057152217","SUNOCO INC",403000,800500,40.5,80.083333,500,"UN","UN","1","U","1010",0,"GARY RABIK",6108333445,"GPRABIK@SUNOCOINC.COM",NA,NA,NA,110042009661
"15025RSTCH400ST","KOPPERS INC CLAIRTON TAR PLANT","300 N STATE ST","CLAIRTON","ALLEGHENY",42003,"PA",15025,3,0,"KOPPERS INC CLAIRTON TAR PLANT","300 N STATE ST","CLAIRTON","PA",NA,NA,"15025","C",NA,NA,"196991582","KOPPERS INC",401730,795230,40.29,79.88,150,"UN","UN","1","U","1010",0,"JOHN IRVINE",4122272884,"IRVINEJK@KOPPERS.COM",NA,"KOPPERS INC",NA,110000328823
"15202GSMTH100WA","SMITH STEELITE","WILLIAMS ST","PITTSBURGH","ALLEGHENY",42003,"PA",15202,3,0,"SMITH STEELITE","1005 BEAVER GRADE RD.","MOON","PA",NA,NA,"15108","C",NA,NA,NA,NA,403024,800524,40.506667,80.09,11000,"UN","UN","1","U","1000",0,"WILLIAM K. SHADLE",4122998167,NA,NA,NA,NA,NA
"15215RMSTR16THM","ARMSTRONG STORE FIXTURE CORP","16TH & MARY'S AVE","PITTSBURGH","ALLEGHENY",42003,"PA",15215,3,0,"ARMSTRONG STORE FIXTURE CORP","16TH & MARY'S AVE","PITTSBURGH","PA",NA,NA,"15215","C",NA,NA,NA,NA,402945,795530,40.495833,79.925,11000,"UN","UN","1","U","1000",0,"KEVIN J HENRY",4127843100,NA,NA,NA,NA,NA
"15238KPPRS1005W","KOPPERS INDUSTRIES INC HTC PILOT PLANT","1005 WILLIAM PITT WAY","PITTSBURGH","ALLEGHENY",42003,"PA",15238,3,0,"KOPPERS INDUSTRIES INC HTC PILOT PLANT","1005 WILLIAM PITT WAY","PITTSBURGH","PA",NA,NA,"15238","C",NA,NA,"196991582","KOPPERS INDUSTRIES INC",402800,805000,NA,NA,NA,NA,NA,NA,NA,NA,0,"BOB WOMBLES",4128263951,NA,NA,NA,NA,NA
"15129CNSLN4000B","CONSOL ENERGY INC RESEARCH & DEVELOPMENT","4000 BROWNSVILLE RD","SOUTH PARK","ALLEGHENY",42003,"PA",15129,3,0,"CONSOL ENERGY INC RESEARCH & DEVELOPMENT","4000 BROWNSVILLE RD","SOUTH PARK","PA",NA,NA,"15129","C",NA,NA,NA,NA,401715,800112,NA,NA,NA,NA,NA,NA,NA,NA,0,"RICHARD WINSCHEL",4128546683,NA,NA,NA,NA,NA
"15225SRMYC39GRA","U. S. ARMY CEKSF - NEVILLE ISLAND MAINTENANCE","3900 GRAND AVE","NEVILLE ISLAND","ALLEGHENY",42003,"PA",15225,3,0,"U.S. ARMY CHARLES E. KELLY SUPPORT FACILITY","6 LOBAUGH ST.PROJECT OFFICE","OAKDALE","PA",NA,NA,"15071","F","DOD",NA,NA,"US DEPARTMENT OF DEFENSE",403035,800645,NA,NA,NA,NA,NA,NA,NA,NA,0,"GEORGIANN SEKELA",7246931801,"GEORGIANN.SEKELA@DIX.ARMY.MIL",NA,NA,NA,110004826653
"15122GNRLM1451L","GENERAL MOTORS MFD PITTSBURG","1451 LEBANON SCHOOL RD","WEST MIFFLIN","ALLEGHENY",42003,"PA",15122,3,0,"GENERAL MOTORS MFD PITTSBURG","1451 LEBANON SCHOOL RD","WEST MIFFLIN","PA",NA,NA,"15122","C",NA,NA,"005356613","GENERAL MOTORS CORP",402050,795400,NA,NA,NA,NA,NA,NA,NA,NA,0,"ADAM WYLIE",4124696608,NA,NA,NA,NA,NA
"15071CRCBL1001R","ATI POWDER METALS - OAKDALE","1001 ROBB HILL RD","OAKDALE","ALLEGHENY",42003,"PA",15071,3,0,"ATI POWDER METALS - OAKDALE","1001 ROBB HILL RD","OAKDALE","PA",NA,NA,"15071","C",NA,NA,"949262737","ALLEGHENY TECHNOLOGIES INC",402520,801138,40.422222,80.193889,11000,"UN","UN","1","U","1000",0,"SCOTT MINDER",4123952720,"SCOTT.MINDER@ATIMETALS.COM",NA,"ALLEGHENY TECHNOLOGIES INC",NA,110000329181
"15146CMPNT2420M","COMPUNETIX INC","2420 MOSSIDE BLVD","MONROEVILLE","ALLEGHENY",42003,"PA",15146,3,0,"COMPUNETIX INC","2420 MOSSIDE BLVD","MONROEVILLE","PA",NA,NA,"15146","C",NA,NA,NA,NA,402508,794525,NA,NA,NA,NA,NA,NA,NA,NA,0,"ALFRED J. NATIVIO III",4128586299,"ANATIVIO@COMPUNETIX.COM",NA,NA,NA,110012708427
"15132NMLPR3500W","SEQUA COATINGS CORP PRECOAT METALS DIV","3500 WALNUT ST","MC KEESPORT","ALLEGHENY",42003,"PA",15132,3,0,"SEQUA COATINGS CORP PRECOAT METALS DIV","3500 WALNUT ST","MC KEESPORT","PA",NA,NA,"15132","C",NA,NA,"001374727","CARLYLE GROUP",401930,795015,40.325,79.8375,150,"UN","UN","1","U","1010",0,"ANU SINGH",3144367010,"ANU_SINGH@PRECOAT.COM",NA,NA,NA,110000329332
"15225VLLYP38NEV","VALLEY PROTEINS (PA) INC PITTSBURGH FACILITY","3800 NEVILLE RD","PITTSBURGH","ALLEGHENY",42003,"PA",15225,3,0,"VALLEY PROTEINS INC","PO BOX 3588","WINCHESTER","VA",NA,NA,"22604","C",NA,NA,NA,"VALLEY PROTEINS (PA) INC",403020,800651,NA,NA,NA,NA,NA,NA,NA,NA,0,"THOMAS A.  GIBSON JR.",5408772590,NA,NA,NA,NA,NA
"15201MBDTN4717B","EM-BED-IT & CO INC","4717 BUTLER ST","PITTSBURGH","ALLEGHENY",42003,"PA",15201,3,1,"EM-BED-IT & CO INC","4717 BUTLER ST","PITTSBURGH","PA",NA,NA,"15201","C",NA,NA,NA,NA,402830,795730,40.475,79.958333,150,"UN","UN","1","U","1010",0,"JOHN A PRIZZUTO",4126214260,NA,NA,NA,NA,NA
"15222WCDMN2816S","A W CADMAN MFG CO","2816 SMALLMAN ST","PITTSBURGH","ALLEGHENY",42003,"PA",152224791,3,1,"A W CADMAN MFG CO","2816 SMALLMAN ST","PITTSBURGH","PA",NA,NA,"15222-4791","C",NA,NA,NA,NA,402728,795834,40.457778,79.976111,150,"UN","UN","1","U","1010",0,"ALEXANDER WHITNEY CADMAN",4122816683,NA,NA,NA,NA,NA
"15108PTTSB9THRN","CORAOPOLIS TERMINALS - DE LLC/CORAOPOLIS TERMINAL","9 THORN ST","CORAOPOLIS","ALLEGHENY",42003,"PA",15108,3,0,"CORAOPOLIS TERMINALS - DE LLC/CORAOPOLIS TERMINAL","PO BOX 2621","HARRISBURG","PA",NA,NA,"17105","C",NA,NA,NA,NA,403131,801035,NA,NA,NA,NA,NA,NA,NA,NA,0,"GEORGE W. ELBERTI III",7179390466,"GELBERTI@LHTTERMINALS.COM",NA,NA,NA,110060020338
"15201BRBRSNEMCC","BARBER SPRING","ONE MCCANDLESS AVE","PITTSBURGH","ALLEGHENY",42003,"PA",15201,3,0,"BARBER SPRING","ONE MCCANDLESS AVE","PITTSBURGH","PA",NA,NA,"15201","C",NA,NA,"05-540-37","WABTEC CORP",402901,795717,NA,NA,NA,NA,NA,NA,NA,NA,0,"DAVID JABLONOWSKI",4127827316,"DJABLONOWSKI@WABTEC.COM",NA,"WABTEC CORP",NA,110022522297
"15233CWNMT2DOER","COWAN METAL FINISHING CO","2 DOERR ST","PITTSBURGH","ALLEGHENY",42003,"PA",15233,3,0,"COWAN METAL FINISHING CO","2 DOERR ST","PITTSBURGH","PA",NA,NA,"15233","C",NA,NA,NA,NA,402813,800220,40.470278,80.038889,150,"UN","UN","1","U","1010",0,"CARL J. SCHMITT",4127667757,NA,NA,NA,NA,NA
"15224BRNGS500DA","BEARING SERVICE CO","500 DARGAN ST","PITTSBURGH","ALLEGHENY",42003,"PA",15224,3,0,"BEARING SERVICE CO","500 DARGAN ST","PITTSBURGH","PA",NA,NA,"15224","C",NA,NA,NA,NA,402741,795719,40.461389,79.955278,150,"UN","UN","1","U","1010",0,"MICHAEL F BARCHESKI",4126217300,NA,NA,NA,NA,NA
"15205FSHRS1610P","FISHER SCIENTIFIC CO LLC ELECTROCHEMISTRY OPS","1610 PKY VIEW DR","PITTSBURGH","ALLEGHENY",42003,"PA",15205,3,0,"FISHER SCIENTIFIC CO LLC ELECTROCHEMISTRY OPS","1610 PKY VIEW DR","PITTSBURGH","PA",NA,NA,"15205","C",NA,NA,"004321519","FISHER SCIENTIFIC CO LLC",452552,800801,NA,NA,NA,NA,NA,NA,NA,NA,0,"THOMAS TISA",4124908928,NA,NA,NA,NA,NA
"15145STLDN200BR","HOLTEC MANUFACTURING","200 BRADDOCK AVE","TURTLE CREEK","ALLEGHENY",42003,"PA",15145,3,0,"HOLTEC MANUFACTURING","200 BRADDOCK AVE","TURTLE CREEK","PA",NA,NA,"15145","C",NA,NA,"175537810","HOLTEC INTERNATIONAL",402347,795004,NA,NA,NA,NA,NA,NA,NA,NA,0,"LEE SOLADA",4128233773,"LSOLADA@HOLTECMFG.COM",NA,"HOLTEC INTERNATIONAL",NA,110028054272
"15218KPPGL2108P","KOPP GLASS INC","2108 PALMER ST","PITTSBURGH","ALLEGHENY",42003,"PA",15218,3,0,"KOPP GLASS INC","2108 PALMER ST","PITTSBURGH","PA",NA,NA,"15218","C",NA,NA,NA,NA,402518,795312,40.421667,79.886667,150,"UN","UN","1","U","1010",0,"GARY MARECIC",4125010222,"GMARECIC@KOPPGLASS.COM",NA,NA,NA,110004835581
"15132CPNDS2214W","CP INDUSTRY INC","2214 WALNUT ST","MC KEESPORT","ALLEGHENY",42003,"PA",15132,3,0,"CP INDUSTRY INC","2214 WALNUT ST","MC KEESPORT","PA",NA,NA,"15132","C",NA,NA,NA,NA,402040,795108,40.344444,79.852222,150,"UN","UN","1","U","1010",0,"C. H. ELLIS",4126646626,NA,NA,NA,NA,NA
"15145NXTCH300BR","STEEL DYNAMICS INC - TECHS DIV - NEXTECH PLANT","300 BRADDOCK AVE","TURTLE CREEK","ALLEGHENY",42003,"PA",15145,3,0,"STEEL DYNAMICS INC - TECHS DIV - NEXTECH PLANT","300 BRADDOCK AVE","TURTLE CREEK","PA",NA,NA,"15145","C",NA,NA,"808202725","STEEL DYNAMICS INC",402413,794956,NA,NA,NA,NA,NA,NA,NA,NA,0,"JULIE MATICS",4123684800,"JULIE.MATICS@STEELDYNAMICS.COM",NA,"STEEL DYNAMICS INC",NA,110000819348
"15136STNDR75NIC","STANDARD FORGED PRODUCTS LLC PLT 1112","75 NICHOL AVE","MC KEES ROCKS","ALLEGHENY",42003,"PA",15136,3,0,"STANDARD FORGED PRODUCTS LLC PLT 1112","75 NICHOL AVE","MC KEES ROCKS","PA",NA,NA,"15136","C",NA,NA,"081323613","ARCOSA INC.",0,0,NA,NA,NA,NA,NA,NA,NA,NA,0,"JERI SHULL",6157928288,"JERI.SHULL@ARCOSA.COM",NA,"ARCOSA INC",NA,110025330933
"15071NDSTR11AKD","INDUSTRIAL SCIENTIFIC CORP","1001 OAKDALE RD","OAKDALE","ALLEGHENY",42003,"PA",15071,3,1,"INDUSTRIAL SCIENTIFIC CORP","1001 OAKDALE RD","OAKDALE","PA",NA,NA,"15071","C",NA,NA,NA,NA,NA,NA,NA,NA,NA,NA,NA,NA,NA,NA,0,"DARRIN BACHY",4124901802,"PRDDEB@INDSCI.COM",NA,"INDUSTRIAL SCIENTIFIC CORP",NA,110004863639
"15104MSDVT13BRA","TMS INTERNATIONAL LLC","1300 BRADDOCK AVE","BRADDOCK","ALLEGHENY",42003,"PA",15104,3,0,"TMS INTERNATIONAL LLC","1155 BUSINESS CENTER DR","HORSHAM","PA",NA,NA,"19044","C",NA,NA,"614394299","TMS INTERNATIONAL CORP",NA,NA,NA,NA,NA,NA,NA,NA,NA,NA,0,"JERIMI YOST",2159565444,"JYOST@TMSINTERNATIONAL.COM",NA,"TMS INTERNATIONAL CORP",NA,110031020357
"15071PRNMNNEPRI","PRION MANUFACTURING","ONE PRION DR","OAKDALE","ALLEGHENY",42003,"PA",15071,3,0,"PRION MANUFACTURING","ONE PRION DR","OAKDALE","PA",NA,NA,"15071","C",NA,NA,NA,NA,NA,NA,NA,NA,NA,NA,NA,NA,NA,NA,0,"BILL PRION",7246930200,"BILL.PRION@OUTLOOK.COM",NA,NA,107,110004881539
"15144PPGND151CO","PPG INDUSTRIES INC RESEARCH & DEVELOPMENT CENTER","151 COLFAX ST","SPRINGDALE","ALLEGHENY",42003,"PA",15144,3,0,"PPG INDUSTRIES INC RESEARCH & DEVELOPMENT CENTER","151 COLFAX ST","SPRINGDALE","PA",NA,NA,"15144","C",NA,NA,"001344803","PPG INDUSTRIES INC",403146,794709,40.529444,79.785833,500,"UN","UN","1","U","1010",0,"LAWRENCE J. CORRIGAN",4122743574,NA,NA,NA,NA,NA
"1501WTBCTY6MAYE","TMS INTERNATIONAL LLC","600 MAYER STREET","BRIDGEVILLE","ALLEGHENY",42003,"PA",15017,3,0,"TMS INTERNATIONAL LLC","600 MAYER ST","BRIDGEVILLE","PA",NA,NA,"15017","C",NA,NA,"614394299","TMS INTERNATIONAL CORP",NA,NA,NA,NA,NA,NA,NA,NA,NA,NA,0,"MICHAEL CONNOLLY",2159565618,"MCONNOLLY@TMSINTERNATIONAL.COM",NA,"TMS INTERNATIONAL CORP",NA,110039496863
"15122NRTHM11PIT","NORTH AMERICAN REFRACTORIES CO WEST MIFFLIN PLANT","1001 PITTSBURGH-MCKEESPORT BLVD","WEST MIFFLIN","ALLEGHENY",42003,"PA",15122,3,0,"NORTH AMERICAN REFRACTORIES CO","400 FAIRWAY DR","MOON TOWNSHIP","PA",NA,NA,"15108","C",NA,NA,"093902542","NORTH AMERICAN REFRACTORIES CO",NA,NA,NA,NA,NA,NA,NA,NA,NA,NA,0,"Charles D. Kidd",6144009717,"CKidd@thinkHWI.com",NA,NA,NA,110037616345
"1510WSDDSF3TANK","US DOD USAF 171 ARW PENNSYLVANIA ANG","300 TANKER ROAD #4257","CORAOPOLIS","ALLEGHENY",42003,"PA",151084257,3,0,"US DOD USAF 171 ARW PENNSYLVANIA ANG","300 TANKER ROAD #4257","CORAOPOLIS","PA",NA,NA,"15108-4257","F","DOD",NA,NA,"US DEPARTMENT OF DEFENSE",NA,NA,NA,NA,NA,NA,NA,NA,NA,NA,1,"SHAWN MONK",4127767152,"SHAWN.D.MONK.MIL@MAIL.MIL",NA,"US DEPARTMENT OF DEFENSE",NA,110007034146
"15088SNYCHSTATE","SANYO CHEMICAL & RESINS LLC","STATE RT 837 PO BOX 567","WEST ELIZABETH","ALLEGHENY",42003,"PA",15088,3,0,"SANYO CHEMICAL & RESINS LLC","PO BOX 567","WEST ELIZABETH","PA",NA,NA,"15088","C",NA,NA,NA,"SANYO N.A.",0,0,NA,NA,NA,NA,NA,NA,NA,NA,0,"SHINYA FUJIBAYASHI",4123842520,"SFUJIBAYASHI@SANAMCORP.COM",NA,"SANYO NORTH AMERICA",NA,110067041846
"15104HRSCH13THB","HARSCO METALS - BRI","13TH & BRADDOCK AVE C/O USS","BRADDOCK","ALLEGHENY",42003,"PA",15104,3,0,"HARSCO METALS - BRI","300 SEVEN FIELDS BLVD","SEVEN FIELDS","PA",NA,NA,"16046","C",NA,NA,"003952009","HARSCO CORP",402350,795135,NA,NA,NA,NA,NA,NA,NA,NA,1,"GLENN HUNDERTMARK",7247416662,NA,NA,"HARSCO CORP",NA,110020515897
"15147HSKLL231HA","HASKELL SENATOR INTERNATIONAL","231 HASKELL LN","VERONA","ALLEGHENY",42003,"PA",151473904,3,0,"HASKELL SENATOR INTERNATIONAL","231 HASKELL LN","VERONA","PA",NA,NA,"15147-3904","C",NA,NA,"004318838","HASKELL SENATOR INTERNATIONAL",403110,794840,40.519444,79.811111,150,"UN","UN","1","U","1010",0,"RICK PRESSLEY",4128286000,NA,NA,NA,NA,NA
"1522WVRCHM3499G","LANXESS CORP NEVILLE ISLAND","3499 GRAND AVE","PITTSBURGH","ALLEGHENY",42003,"PA",15225,3,0,"LANXESS CORP NEVILLE ISLAND","3499 GRAND AVE","PITTSBURGH","PA",NA,NA,"15225","C",NA,NA,"145858770","LANXESS CORP",NA,NA,NA,NA,NA,NA,NA,NA,NA,NA,0,"PAUL FEREK",4128091183,"PAUL.FEREK@LANXESS.COM",NA,"LANXESS CORP",NA,110010616814
"1513WMCKSP314TH","DB PIPE LLC","301 4TH AVE","MCKEESPORT","ALLEGHENY",42003,"PA",15132,3,0,"DB PIPE LLC","5790 KENNEDY AVE","EXPORT","PA",NA,NA,"15632","C",NA,NA,"004373981","DURA-BOND INDUSTRIES INC",0,0,NA,NA,NA,NA,NA,NA,NA,NA,0,"JOHN HOPPER",7243874307,"JOHN.HOPPER@DURA-BOND.COM",NA,"DURA-BOND INDUSTRIES INC",NA,110043593956
"15201SHRCH2917S","SHORE CORP","2917 SPRUCE WAY","PITTSBURGH","ALLEGHENY",42003,"PA",15201,3,0,"SHORE CORP","2305 DUSS AVENUE, SUITE 3","AMBRIDGE","PA",NA,NA,"15003","C",NA,NA,"808546600","SHORE CORP",402733,795830,NA,NA,NA,NA,NA,NA,NA,NA,0,"STUART G. HAMMERSCHMIDT",4124713330,"SHAMMERSCHMIDT@SHORECORPORATION.COM",NA,"SHORE CORP",NA,110000329476
"15017NCSNC3039W","GE IONICS BRIDGEVILLE","3039 WASHINGTON PIKE","BRIDGEVILLE","ALLEGHENY",42003,"PA",15017,3,0,"GE IONICS BRIDGEVILLE","3039 WASHINGTON PIKE","BRIDGEVILLE","PA",NA,NA,"15017","C",NA,NA,"1367960","GE CO",422100,800500,40.351207,80.11398,150,"A1","PG","1","J","1000",0,"JAMES BAIRD",7247430270,NA,NA,NA,NA,110000328761
"15239RBCNC100SA","ROBICON CORP","100 SAGAMORE HILL RD","PITTSBURGH","ALLEGHENY",42003,"PA",15239,3,0,"ROBICON CORP","100 SAGAMORE HILL RD","PITTSBURGH","PA",NA,NA,"15239","C",NA,NA,"005145958","BARBER-COLEMAN CO",NA,NA,40.4842,79.7355,11000,"Z1","UN","1","U","0000",0,NA,NA,NA,NA,NA,NA,NA
"15230DLXCH615MC","DELUXE CHECK PRINTERS INC","615 MCMICHAEL RD","PITTSBURGH","ALLEGHENY",42003,"PA",152059724,3,0,"DELUXE CHECK PRINTERS INC.","P.O. BOX 2852","PITTSBURGH","PA",NA,NA,"15230-2852","C",NA,NA,"006148597","DELUXE CORP",402642,800810,40.445,80.136111,150,"UN","UN","1","U","1010",0,"PHIL GENTRY",4127882105,NA,NA,NA,NA,NA
"15024MLLNN1105C","TMG ELECTRONICS","1105 CHESWICK","CHESWICK","ALLEGHENY",42003,"PA",15024,3,0,"TMG ELECTRONICS","1105 CHESWICK","CHESWICK","PA",NA,NA,"15024","C",NA,NA,NA,"MBG TECHNOLOGIES INC",403225,794829,NA,NA,NA,NA,NA,NA,NA,NA,0,"DAVID  TOMAN",7242747741,"TOMAN.D@1TMG.COM",NA,NA,NA,110006900906
"15201CYTMP31STS","PITTSBURGH FLATROLL CO","31ST ST & AVRR","PITTSBURGH","ALLEGHENY",42003,"PA",15201,3,0,"PITTSBURGH FLATROLL CO","31ST ST & AVRR","PITTSBURGH","PA",NA,NA,"15201","C",NA,NA,"108904855","FARRELL & CO",402741,795804,40.461389,79.967778,11000,"UN","UN","1","U","1000",0,"MATT GRANDINETTE",7249413500,NA,NA,NA,NA,NA
"15014LLGHNRIVER","ATI FLAT ROLLED PRODUCTS HOLDINGS LLC","100 RIVER RD","BRACKENRIDGE","ALLEGHENY",42003,"PA",15014,3,0,"ATI FLAT ROLLED PRODUCTS HOLDINGS LLC","100 RIVER RD","BRACKENRIDGE","PA",NA,NA,"15014","C",NA,NA,"949262737","ALLEGHENY TECHNOLOGIES INC",403622,794352,40.606111,79.731111,500,"UN","UN","1","U","1010",0,"GILLESPIE,NATALIE C",4123942850,"NATALIE.GILLESPIE@ATIMETALS.COM",NA,"ALLEGHENY TECHNOLOGIES INC",NA,110000328734
"15225CLGNC200NE","CALGON CARBON CORP NEVILLE ISLAND PLANT","200 NEVILLE RD","PITTSBURGH","ALLEGHENY",42003,"PA",15225,3,0,"CALGON CARBON CORP NEVILLE ISLAND PLANT","200 NEVILLE RD","PITTSBURGH","PA",NA,NA,"15225","C",NA,NA,"174708540","KURARAY HOLDINGS LTD",402902,800443,40.5083,80.1267,150,"A1","PG","1","J","1000",0,"TONY FELICIANO",4127876794,"TONY.FELICIANO@KURARAY.COM",NA,"KURARAY HOLDINGS LTD",NA,110000329617
"15225CLRWT5605G","CLEARWATER INC","5605 GRAND AVE","PITTSBURGH","ALLEGHENY",42003,"PA",15225,3,1,"CLEARWATER INC","5605 GRAND AVE","PITTSBURGH","PA",NA,NA,"15225","C",NA,NA,NA,NA,403037,800748,40.510278,80.13,11000,"UN","UN","1","U","1000",0,"MARK J WANNER",7243181014,NA,NA,NA,NA,NA
"15225VLCNM4100G","AMG RESOURCES CORP","4100 GRAND AVE","PITTSBURGH","ALLEGHENY",42003,"PA",152251516,3,0,"AMG RESOURCES CORP","4100 GRAND AVE","PITTSBURGH","PA",NA,NA,"15225-1516","C",NA,NA,"185112661","AMG RESOURCES CORP",403037,800703,40.510278,80.1175,150,"UN","UN","1","U","1010",0,"LOUIS D. DEFABIO",4127777341,NA,NA,NA,NA,NA
"1502WFLBGS221SW","FLABEG SOLAR US CORPORATION","2201 SWEENEY DRIVE","CLINTON","ALLEGHENY",42003,"PA",15026,3,0,"FLABEG SOLAR US CORPORATION","2201 SWEENEY DRIVE","CLINTON","PA",NA,NA,"15026","C",NA,NA,NA,NA,NA,NA,NA,NA,NA,NA,NA,NA,NA,NA,0,"WILLIAM E. OTTO",7248994610,"BILL.OTTO@FLABEG.COM",NA,"FLABEG SOLAR US CORP",NA,110039279269
"1523WCHSCR21ZET","CHASE CORP - PITTSBURGH","201 ZETA DRIVE","PITTSBURGH","ALLEGHENY",42003,"PA",15238,3,0,"CHASE CORP - PITTSBURGH","201 ZETA DRIVE","PITTSBURGH","PA",NA,NA,"15238","C",NA,NA,"001359769","CHASE CORP",NA,NA,NA,NA,NA,NA,NA,NA,NA,NA,0,"JOHN MARINE",4017225500,"JMARINE@CHASECORP.COM",NA,"CHASE CORP",7801,110043693731
"15112WSTNG700BR","INTERVALA - PITTSBURGH","700 BRADDOCK AVE","EAST PITTSBURGH","ALLEGHENY",42003,"PA",15112,3,0,"INTERVALA - PITTSBURGH","700 BRADDOCK AVE","EAST PITTSBURGH","PA",NA,NA,"15112","C",NA,NA,NA,NA,402356,794954,40.398889,79.831667,150,"UN","UN","1","U","1010",0,"DAMIAN ESSEL",4124294849,"DAMIAN.ESSEL@INTERVALA.COM",NA,NA,NA,110002342812
"15110DRBND5NLIN","DURA-BOND COATING INC","5 N LINDEN","DUQUESNE","ALLEGHENY",42003,"PA",15110,3,0,"DURA-BOND COATING INC","5 N LINDEN","DUQUESNE","PA",NA,NA,"15110","C",NA,NA,"004373981","DURA-BOND INDUSTRIES INC.",NA,NA,NA,NA,NA,NA,NA,NA,NA,NA,0,"JOHN HOPPER",7243874307,"JOHN.HOPPER@DURA-BOND.COM",NA,"DURA-BOND INDUSTRIES INC",NA,110045319641
"1523WLBCHM2WILL","LABCHEM INC","200 WILLIAM PITT WAY","PITTSBURGH","ALLEGHENY",42003,"PA",152381328,3,1,"LABCHEM INC","200 WILLIAM PITT WAY","PITTSBURGH","PA",NA,NA,"15238-1328","C",NA,NA,NA,NA,NA,NA,NA,NA,NA,NA,NA,NA,NA,NA,0,"PATRICK MAHER",4128265230,"PATRICKM@LABCHEM.COM",NA,"LABCHEM INC",NA,110002450160
"15134DRBND3200Y","DURA-BOND COATING","3200 YOUGHIOGHENY RIVER RD","LIBERTY BOROUGH","ALLEGHENY",42003,"PA",15134,3,1,"DURA-BOND COATING","PO BOX 698","MCKEESPORT","PA",NA,NA,"15134","C",NA,NA,"004373981","DURA-BOND INDUSTRIES INC.",401934,795048,40.326111,79.846667,99999,"UN","UN","U","U","0000",0,"JOHN HOPPER",7243270280,"JHOPPER@DURA-BOND.COM",NA,"DURA-BOND INDUSTRIES INC",NA,110001022893
"15051MDRDNMEDRA","MEDRAD INC","1 MEDRAD DR","INDIANOLA","ALLEGHENY",42003,"PA",15051,3,0,"MEDRAD INC","1 MEDRAD DR","INDIANOLA","PA",NA,NA,"15051","C",NA,NA,"064960248","BAYER GROUP",403029,795148,40.568056,79.857778,500,"UN","UN","1","U","1010",0,"LUANNE RADERMARCHER",7249407968,"LRADERMERCHER@MEDRAD.COM",NA,NA,NA,110000328967
"15321TMZDM100PA","ATOMIZED MATERIALS CO INC","205 PARKS ROAD,  S FAYETTE TOWNSHIP","MC DONALD","ALLEGHENY",42003,"PA",15057,3,0,"ATOMIZED MATERIALS CO INC","PO BOX 299 WASHINGTON COUNTY","CECIL","PA",NA,NA,"153210299","C",NA,NA,NA,NA,402019,801021,40.338611,80.1725,11000,"UN","UN","1","U","1000",0,"SAMUEL E. PUGLISI",4122217020,"SEPUGLISI@ATOMIZEDMATERIALS.NET",NA,NA,NA,110000329911
"15122LBRTY1575L","LIBERTY PULTRUSIONS","1575 LEBANON SCHOOL RD","WEST MIFFLIN","ALLEGHENY",42003,"PA",15122,3,0,"LIBERTY PULTRUSIONS","1575 LEBANON SCHOOL RD","WEST MIFFLIN","PA",NA,NA,"15122","C",NA,NA,NA,NA,402046,795322,40.346111,79.889444,150,"UN","UN","1","U","1010",0,"DAVID GRIFFITH",4124668611,"DGRIFFITH@LIBERTYPULTRUSIONS.COM",NA,NA,NA,110000329305
"15205CRCBL6003C","CRUCIBLE RESEARCH","6003 CAMPBELLS RUN RD","PITTSBURGH","ALLEGHENY",42003,"PA",152051022,3,0,"CRUCIBLE RESEARCH","6003 CAMPBELLS RUN RD","PITTSBURGH","PA",NA,NA,"15205-1022","C",NA,NA,"118508878","CRUCIBLE MATERIALS CORP",402650,800941,NA,NA,NA,NA,NA,NA,NA,NA,0,"BLAIR SHAFFER",4129232955,NA,NA,NA,NA,NA
"15139FFVLN10ANN","AFFIVAL INC","10 ANN ST BUILDING 12","OAKMONT","ALLEGHENY",42003,"PA",15139,3,0,"AFFIVAL INC","10 ANN ST BUILDING 12","OAKMONT","PA",NA,NA,"15139","C",NA,NA,NA,"DEGUSSA AG",403110,795046,40.5183,79.842444,5000,"C2","UN","1","U","0000",0,"JUDITH A. BELL",7242651766,NA,NA,NA,NA,NA
"1506WDCTMT152IN","DUCTMATE INDUSTRIES","1502 INDUSTRIAL DR","MONONGAHELA","ALLEGHENY",42003,"PA",15063,3,0,"DUCTMATE INDUSTRIES","1502 INDUSTRIAL DR","MONONGAHELA","PA",NA,NA,"15063","C",NA,NA,NA,NA,0,0,NA,NA,NA,NA,NA,NA,NA,NA,0,"PAXTON BUCHERAL",7243101054,"PBUCHERAL@DMICOMPANIES.COM",NA,NA,NA,110060152659
"1520WQNNRG3239T","AQUION ENERGY INC","32 39TH ST","PITTSBURGH","ALLEGHENY",42003,"PA",15201,3,0,"AQUION ENERGY INC","32 39TH ST","PITTSBURGH","PA",NA,NA,"15201","C",NA,NA,NA,"AQUION ENERGY INC.",NA,NA,NA,NA,NA,NA,NA,NA,NA,NA,0,"MR. RICH WALKER",7246135347,"RWALKER@AQUION-ENERGY.COM",NA,"AQUION ENERGY INC",NA,110043453312
"1520WLFRGC161CH","LAFARGE RMX","1601 CHARTIERS VALLEY LN","PITTSBURGH","ALLEGHENY",42003,"PA",15205,3,0,"LAFARGE RMX","PO BOX 44109","PITTSBURGH","PA",NA,NA,"15205","C",NA,NA,NA,"LAFARGEHOLCIM NA INC",0,0,NA,NA,NA,NA,NA,NA,NA,NA,0,"ALLYSON ZURAWSKI, PE",7162435612,"ALLYSON.ZURAWSKI@LAFARGEHOLCIM.COM",NA,NA,NA,110060131539
"15201MCCNW10948","MCCONWAY & TORLEY LLC PLT 1801","109 48TH ST","PITTSBURGH","ALLEGHENY",42003,"PA",15201,3,0,"MCCONWAY & TORLEY LLC PLT 1801","109 48TH ST","PITTSBURGH","PA",NA,NA,"15201","C",NA,NA,"081323613","ARCOSA INC",402844,795751,40.478889,79.964167,150,"UN","UN","1","U","1010",0,"JERI SHULL",6157928320,"JERI.SHULL@ARCOSA.COM",NA,"ARCOSA INC",28288,110000329458
"1501WTHLNC2PRES","NORTHEAST PAVING BRIDGEVILLE PLANT","2 PRESTLEY ROAD","BRIDGEVILLE","ALLEGHENY",42003,"PA",15017,3,0,"NORTHEAST PAVING BRIDGEVILLE PLANT","290 BILMAR DRIVE, 3RD FLOOR","PITTSBURGH","PA",NA,NA,"15205","C",NA,NA,"116894157","EUROVIA ATLANTIC COAST LLC",NA,NA,NA,NA,NA,NA,NA,NA,NA,NA,0,"BRAD REGNER",4128753370,"BRAD.REGNER@EUROVIA.US",NA,"EUROVIA ATLANTIC COAST LLC",NA,110055233019
"15049WTSNS616HI","WATSON STANDARD CO HARWICK PLANT","616 HITE RD","HARWICK","ALLEGHENY",42003,"PA",15049,3,0,"WATSON STANDARD CO HARWICK PLANT","616 HITE ROAD","HARWICK","PA",NA,NA,"15049","C",NA,NA,"834950552","WATSON INDUSTRIES INC",403316,794836,40.555,79.810278,500,"UN",NA,"1","U","1010",1,"WATSON STANDARD",7242751000,"RHUSKULIAK@WATSONSTANDARD.COM",NA,"WATSON INDUSTRIES INC",NA,110007758284
"1512WLFRGD481BU","LAFARGE - DUQUESNE SLAG","4810 BUTTERMILK HOLLOW ROAD","WEST MIFFLIN","ALLEGHENY",42003,"PA",15122,3,0,"LAFARGE - DUQUESNE SLAG","4810 BUTTERMILK HOLLOW RD","WEST MIFFLIN","PA",NA,NA,"15122","C",NA,NA,"067568246","REDLAND QUARRIES NY INC.",NA,NA,NA,NA,NA,NA,NA,NA,NA,NA,0,"TONY DISTEFANO",7165836789,"TONY.DISTEFANO@LAFARGEHOLCIM.COM",NA,"LAFARGEHOLCIM NORTH AMERICA INC",NA,110001060244
"15225SHNNG200NE","SHENANGO INC","200 NEVILLE RD","PITTSBURGH","ALLEGHENY",42003,"PA",15225,3,0,"SHENANGO INC","200 NEVILLE RD","PITTSBURGH","PA",NA,NA,"15225","C",NA,NA,"876235490","DTE ENERGY CO",402948,800432,40.5083,80.1267,150,"A1","PG","1","J","1000",0,"ROBERT SANCH",7343025383,"ROBERT.SANCH@DTEENERGY.COM",NA,"DTE ENERGY CO",NA,110000744874
"15017GNRLLMAYER","GE CO BRIDGEVILLE GLASS PLANT","540 MAYER ST","BRIDGEVILLE","ALLEGHENY",42003,"PA",15017,3,0,"GE CO BRIDGEVILLE GLASS PLANT","540 MAYER ST","BRIDGEVILLE","PA",NA,NA,"15017","C",NA,NA,"001367960","GENERAL ELECTRIC CO (GE CO)",402121,800620,40.365278,80.105556,500,"UN","UN","1","U","1010",0,"BARRY HALLOCK",8287028382,"BARRYH.HALLOCK@GE.COM",NA,"GENERAL ELECTRIC CO (GE CO)",NA,110000328752
"15017DYNMT600MA","CARPENTER POWDER PRODUCTS INC","682 MAYER ST","BRIDGEVILLE","ALLEGHENY",42003,"PA",15017,3,0,"CARPENTER POWDER PRODUCTS INC","600 MAYER ST","BRIDGEVILLE","PA",NA,NA,"15017","C",NA,NA,"002344315","CARPENTER TECHNOLOGY CORP",0,0,NA,NA,NA,NA,NA,NA,NA,NA,0,"DAVID GRAF",4843369249,"DGRAF@CARTECH.COM",NA,"CARPENTER TECHNOLOGY CORP",NA,110000740039
"15051MRCNRSTATE","KINDER MORGAN TRANSMIX CO LLC","918 RT 910","INDIANOLA","ALLEGHENY",42003,"PA",15051,3,0,"KINDER MORGAN TRANSMIX CO LLC","PO BOX 840","INDIANOLA","PA",NA,NA,"15051","C",NA,NA,NA,"KINDER MORGAN",403417,795152,40.571389,79.864444,11000,"UN","UN","1","U","1000",0,"RICHARD KREJCI",7707514157,"RICK_KREJCI@KINDERMORGAN.COM",NA,"KINDER MORGAN",NA,110000747568
"1513WBRNNT185AB","BRENNTAG NORTHEAST OAKMONT FACILITY","1085 ALLEGHENY AVE","OAKMONT","ALLEGHENY",42003,"PA",15139,3,0,"BRENNTAG NORTHEAST OAKMONT FACILITY","81 W. HULLER LANE","READING","PA",NA,NA,"19605","C",NA,NA,"092963644","BRENNTAG N.A. INC",NA,NA,NA,NA,NA,NA,NA,NA,NA,NA,0,"RICHARD STANLEY",6109169369,"RSTANLEY@BRENNTAG.COM",NA,NA,NA,110070595916
"1502WCRTSS1WRIG","CURTISS WRIGHT ELECTRO MECH CORP","1000 WRIGHT WAY","CHESWICK","ALLEGHENY",42003,"PA",15024,3,0,"CURTISS WRIGHT ELECTRO MECH CORP","1000 WRIGHT WAY","CHESWICK","PA",NA,NA,"15024","C",NA,NA,"002013522","CURTISS-WRIGHT CORP",NA,NA,NA,NA,NA,NA,NA,NA,NA,NA,0,"HEATHER LIST",7242755755,"HLIST@CURTISSWRIGHT.COM",NA,"CURTISS-WRIGHT CORP",NA,110064209351
"1523WBRNGS63ALP","BEARING SVC CO","630 ALPHA DR RIDC PARK","PITTSBURGH","ALLEGHENY",42003,"PA",15238,3,0,"BEARING SVC CO","630 ALPHA DR RIDC PARK","PITTSBURGH","PA",NA,NA,"15238","C",NA,NA,NA,NA,NA,NA,NA,NA,NA,NA,NA,NA,NA,NA,0,"RYAN BANKS",4127264549,"RBANKS@BEARING-SERVICE.COM",NA,NA,3040,NA
"1511WTHRML5NRTH","THERMAL TRANSFER CORP","50 N LINDEN ST","DUQUESNE","ALLEGHENY",42003,"PA",15110,3,0,"THERMAL TRANSFER CORP","50 N LINDEN ST","DUQUESNE","PA",NA,NA,"15110","C",NA,NA,"612626675","WABTEC CORP",0,0,NA,NA,NA,NA,NA,NA,NA,NA,0,"BRANDON KAMEG",4122652813,"BKAMEG@WABTEC.COM",NA,"WABTEC CORP",NA,110070281222
"1513WBPNCM149NB","BPI INC-MCKEES ROCKS PA PLANT","149 NICHOL AVE","MC KEES ROCKS","ALLEGHENY",42003,"PA",15136,3,0,"BPI INC-MCKEES ROCKS PA PLANT","BPI, INC","PITTSBURGH","PA",NA,NA,"15221","C",NA,NA,"074623968","BPI INC (BY PRODUCT INDUSTRIES INC)",0,0,NA,NA,NA,NA,NA,NA,NA,NA,0,"JOE QUIGLEY",4123718554,"JOEQ@BPIMINERALS.COM",NA,"BPI INC",NA,110063667884
"1508WWRLDW6THCE","RESCO PRODUCTS INC","6TH & CENTER ST","TARENTUM","ALLEGHENY",42003,"PA",15084,3,0,"RESCO PRODUCTS INC","P. O. BOX  28","TARENTUM","PA",NA,NA,"15084","C",NA,NA,"002324655","RESCO PRODUCTS INC",NA,NA,NA,NA,NA,NA,NA,NA,NA,NA,0,"MICHAEL SKINNER",7242448800,"MIKE.SKINNER@RESCOPRODUCTS.COM",NA,"RESCO PRODUCTS INC",NA,110059464887
"1510WSDDSF316DE","US DOD USAF 911TH AIRLIFT WING","2475 DEFENSE AVE","CORAOPOLIS","ALLEGHENY",42003,"PA",15108,3,0,"US DOD USAF 911TH AIRLIFT WING","911 AIRLIFT WING, PITTSBURGH IAP ARS","CORAOPOLIS","PA",NA,NA,"151084402","F","DOD",NA,NA,"US DEPARTMENT OF DEFENSE",NA,NA,NA,NA,NA,NA,NA,NA,NA,NA,0,"MARK WINKLOSKY",4124748511,"MARK.WINKLOSKY.1@US.AF.MIL",NA,"US DEPARTMENT OF DEFENSE",NA,110067123071
"1514WTHLNC1SHER","NORTHEAST PAVING SPRINGDALE PLANT","1000 SHEROSKY WAY","SPRINGDALE","ALLEGHENY",42003,"PA",15144,3,0,"NORTHEAST PAVING SPRINGDALE PLANT","290 BILMAR DRIVE","PITTSBURGH","PA",NA,NA,"15144","C",NA,NA,"116894157","EUROVIA ATLANTIC COAST LLC",NA,NA,NA,NA,NA,NA,NA,NA,NA,NA,0,"BRAD REGNER",4128753370,"BRAD.REGNER@EUROVIA.US",NA,"EUROVIA ATLANTIC COAST LLC",NA,110067129930
"15025SSCLR400ST","USS-CLAIRTON PLANT","400 STATE ST MS 71","CLAIRTON","ALLEGHENY",42003,"PA",15025,3,0,"USS-CLAIRTON PLANT","400 STATE ST MS 71","CLAIRTON","PA",NA,NA,"15025","C",NA,NA,"029990699","US STEEL CORP",401825,795230,40.306944,79.875,150,"UN","UN","1","U","1010",0,"MEGHAN COX",4124336777,"MMCOX@USS.COM",NA,"US STEEL CORP",NA,110042043384
"1512WSMNSN7EWAT","SIEMENS INDUSTRY INC","700 E WATERFRONT DR","MUNHALL","ALLEGHENY",42003,"PA",15120,3,0,"SIEMENS INDUSTRY INC","700 E WATERFRONT DR","MUNHALL","PA",NA,NA,"15120","C",NA,NA,"019044650","SIEMENS CORP",NA,NA,NA,NA,NA,NA,NA,NA,NA,NA,0,"CHRISTINE HIGDON",5025948175,"CHRISTINE.HIGDON@SIEMENS.COM",NA,"SIEMENS CORP",NA,110064444980
"1513WPVSNLNICHL","PVS NOLWOOD CHEMICALS INC","148 NICHOL AVE - MRIE BLDG 162/163/164","MC KEES ROCKS","ALLEGHENY",42003,"PA",15136,3,0,"PVS NOLWOOD CHEMICALS INC","148 NICHOL AVE - MRIE BLDG 162/163/164","MC KEES ROCKS","PA",NA,NA,"15136","C",NA,NA,"004912309","PVS CHEMICALS INC",NA,NA,NA,NA,NA,NA,NA,NA,NA,NA,0,"DICK O'NEIL",3139211200,"DONEIL@PVSCHEMICALS.COM",NA,"PVS CHEMICALS INC",2802,110064851003
"1513WJBBLN18NIC","PVS NOLWOOD CHEMICALS INC","180 NICHOL AVE","MC KEES ROCKS","ALLEGHENY",42003,"PA",15136,3,0,"PVS NOLWOOD CHEMICALS INC","180 NICHOL AVE","MC KEES ROCKS","PA",NA,NA,"15136","C",NA,NA,"004912309","PVS CHEMICALS INC",NA,NA,NA,NA,NA,NA,NA,NA,NA,NA,0,"STEVEN CRETSINGER",3132720993,"SCRETSINGER@PVSCHEMICALS.COM",NA,"PVS CHEMICALS INC",2518,110069232351
"1520WNDSTR1LIFE","INDUSTRIAL SCIENTIFIC","1 LIFE WAY","PITTSBURGH","ALLEGHENY",42003,"PA",15205,3,0,"INDUSTRIAL SCIENTIFIC","1 LIFE WAY","PITTSBURGH","PA",NA,NA,"15205","C",NA,NA,NA,NA,NA,NA,NA,NA,NA,NA,NA,NA,NA,NA,0,"DARRIN BACHY",4124901802,"PRDDEB@INDSCI.COM",NA,NA,NA,110064457467
